[
 {
   "place_name": "석바위하나약국",
   "address_name": "인천광역시 미추홀구 경원대로 848, 주안태흥프라자 104호 (주안동)",
   "phone": "032-426-2727",
   "x": 126.6902724,
   "y": 37.45788376
 },
 {
   "place_name": "바른정약국",
   "address_name": "인천광역시 미추홀구 인주대로 470, 죠이하우스빌딩 1층 (주안동)",
   "phone": "",
   "x": 126.688877,
   "y": 37.45052603
 },
 {
   "place_name": "주안튼튼약국",
   "address_name": "인천광역시 미추홀구 석정로 391, 1층 (주안동)",
   "phone": "",
   "x": 126.6789987,
   "y": 37.46719919
 },
 {
   "place_name": "도움약국",
   "address_name": "인천광역시 미추홀구 낙섬중로 138, 미추홀프라자 101호 (용현동)",
   "phone": "",
   "x": 126.644714,
   "y": 37.45828623
 },
 {
   "place_name": "휴베이스센트럴약국",
   "address_name": "인천광역시 미추홀구 연남로 35, 인천종합터미널,롯데백화점 지하1층 (관교동)",
   "phone": "",
   "x": 126.7020816,
   "y": 37.43986946
 },
 {
   "place_name": "비타민약국",
   "address_name": "인천광역시 미추홀구 인주대로 51, 더스테이프라임월드 108호 (숭의동)",
   "phone": "032-887-5707",
   "x": 126.6439458,
   "y": 37.45921915
 },
 {
   "place_name": "종로5가약국",
   "address_name": "인천광역시 미추홀구 인주대로 131, 1층 (용현동)",
   "phone": "032-888-9983",
   "x": 126.6517367,
   "y": 37.45662429
 },
 {
   "place_name": "선정수약국",
   "address_name": "인천광역시 미추홀구 학익소로 66, 선정빌딩 1층 106호 (학익동)",
   "phone": "032-872-1125",
   "x": 126.6703382,
   "y": 37.44184911
 },
 {
   "place_name": "햇님약국",
   "address_name": "인천광역시 미추홀구 숙골로 114, 우리타워 103호 (도화동)",
   "phone": "032-872-2582",
   "x": 126.6620175,
   "y": 37.47211734
 },
 {
   "place_name": "드림약국",
   "address_name": "인천광역시 미추홀구 독배로 465 (숭의동)",
   "phone": "032-881-2750",
   "x": 126.6469601,
   "y": 37.46025604
 },
 {
   "place_name": "열린약국",
   "address_name": "인천광역시 미추홀구 낙섬중로 37, 1층 (용현동)",
   "phone": "032-881-5324",
   "x": 126.6372784,
   "y": 37.45163991
 },
 {
   "place_name": "르네상스약국",
   "address_name": "인천광역시 미추홀구 경원대로 869, 르네상스빌딩 504호 (주안동)",
   "phone": "032-420-0457",
   "x": 126.6891393,
   "y": 37.46039526
 },
 {
   "place_name": "르네상스약국",
   "address_name": "인천광역시 미추홀구 경원대로 869, 르네상스빌딩 504호 (주안동)",
   "phone": "032-420-0457",
   "x": 126.6891393,
   "y": 37.46039526
 },
 {
   "place_name": "한결약국",
   "address_name": "인천광역시 미추홀구 독정이로 79, 미지빌딩 102호 (숭의동)",
   "phone": "032-889-0515",
   "x": 126.6511855,
   "y": 37.46268973
 },
 {
   "place_name": "온사랑온누리약국",
   "address_name": "인천광역시 미추홀구 미추홀대로 715, 101호 (주안동)",
   "phone": "032-876-5632",
   "x": 126.679945,
   "y": 37.46138306
 },
 {
   "place_name": "건강효약국",
   "address_name": "인천광역시 미추홀구 인주대로132번길 12, 1층 (용현동)",
   "phone": "032-881-5050",
   "x": 126.6517089,
   "y": 37.45583649
 },
 {
   "place_name": "가까운무궁화약국",
   "address_name": "인천광역시 미추홀구 인주대로128번길 7-10, 1층 (용현동)",
   "phone": "032-888-2593",
   "x": 126.6516142,
   "y": 37.45595641
 },
 {
   "place_name": "건강나누리약국",
   "address_name": "인천광역시 미추홀구 인주대로 489, 1층 (주안동)",
   "phone": "032-422-1117",
   "x": 126.6910209,
   "y": 37.45092037
 },
 {
   "place_name": "주안정약국",
   "address_name": "인천광역시 미추홀구 미추홀대로719번길 4, 부성PINE 104,105호 (주안동)",
   "phone": "032-874-3652",
   "x": 126.6797888,
   "y": 37.46196452
 },
 {
   "place_name": "더편한약국",
   "address_name": "인천광역시 미추홀구 인주대로 404 (주안동)",
   "phone": "032-427-7698",
   "x": 126.6814505,
   "y": 37.45105619
 },
 {
   "place_name": "푸르미약국",
   "address_name": "인천광역시 미추홀구 인하로 296, 쌍용아파트상가 107호 (주안동)",
   "phone": "032-425-5780",
   "x": 126.680941,
   "y": 37.4476872
 },
 {
   "place_name": "대영약국",
   "address_name": "인천광역시 미추홀구 인주대로132번길 6 (용현동)",
   "phone": "032-881-9731",
   "x": 126.6516601,
   "y": 37.45608293
 },
 {
   "place_name": "건강제일약국",
   "address_name": "인천광역시 미추홀구 경인로 291 (도화동)",
   "phone": "032-866-7025",
   "x": 126.6735667,
   "y": 37.46101531
 },
 {
   "place_name": "메디팜현상약국",
   "address_name": "인천광역시 미추홀구 미추홀대로 628, 1층 (주안동)",
   "phone": "032-873-9870",
   "x": 126.6801086,
   "y": 37.45332046
 },
 {
   "place_name": "태양약국",
   "address_name": "인천광역시 미추홀구 구월로37번길 46, 1층 (주안동)",
   "phone": "032-421-1379",
   "x": 126.6941686,
   "y": 37.45950245
 },
 {
   "place_name": "용현우리약국",
   "address_name": "인천광역시 미추홀구 독배로 420-1, 102호 (용현동)",
   "phone": "032-888-8876",
   "x": 126.6500002,
   "y": 37.4572067
 },
 {
   "place_name": "백세약국",
   "address_name": "인천광역시 미추홀구 경인로 429, 1층 (주안동)",
   "phone": "032-229-0299",
   "x": 126.6878824,
   "y": 37.45827531
 },
 {
   "place_name": "다나약국",
   "address_name": "인천광역시 미추홀구 경인로 233, 1층 1호 (도화동)",
   "phone": "032-861-0910",
   "x": 126.6684509,
   "y": 37.46439886
 },
 {
   "place_name": "보은약국",
   "address_name": "인천광역시 미추홀구 인주대로 130, 1층 (용현동)",
   "phone": "032-888-5319",
   "x": 126.6514295,
   "y": 37.45623
 },
 {
   "place_name": "신기시장약국",
   "address_name": "인천광역시 미추홀구 인하로 275, 1층 101호 (주안동)",
   "phone": "032-863-0522",
   "x": 126.678719,
   "y": 37.44831282
 },
 {
   "place_name": "아침6시약국",
   "address_name": "인천광역시 미추홀구 인주대로 460, 1층 (주안동)",
   "phone": "032-433-5319",
   "x": 126.6878111,
   "y": 37.45062453
 },
 {
   "place_name": "하늘온누리약국",
   "address_name": "인천광역시 미추홀구 낙섬중로32번길 15 (용현동)",
   "phone": "032-891-8575",
   "x": 126.6380181,
   "y": 37.45109999
 },
 {
   "place_name": "성광코끼리약국",
   "address_name": "인천광역시 미추홀구 독배로 422, 1층 (용현동)",
   "phone": "032-881-0983",
   "x": 126.6498159,
   "y": 37.45737879
 },
 {
   "place_name": "유원소망약국",
   "address_name": "인천광역시 미추홀구 낙섬중로 101, 1층 (용현동)",
   "phone": "032-885-3929",
   "x": 126.6411386,
   "y": 37.45658938
 },
 {
   "place_name": "유원소망약국",
   "address_name": "인천광역시 미추홀구 낙섬중로 101, 1층 (용현동)",
   "phone": "032-885-3929",
   "x": 126.6411386,
   "y": 37.45658938
 },
 {
   "place_name": "키즈맘약국",
   "address_name": "인천광역시 미추홀구 경원대로 766, 1층 (주안동)",
   "phone": "032-422-3308",
   "x": 126.6903837,
   "y": 37.4510997
 },
 {
   "place_name": "디에이치(DH)메디컬약국",
   "address_name": "인천광역시 미추홀구 석정로 271, 1층 (도화동)",
   "phone": "032-874-0405",
   "x": 126.6656842,
   "y": 37.46857513
 },
 {
   "place_name": "석바위약국",
   "address_name": "인천광역시 미추홀구 경원대로 862, 1층 (주안동)",
   "phone": "032-427-7867",
   "x": 126.6898112,
   "y": 37.45963039
 },
 {
   "place_name": "뉴(new)현대약국",
   "address_name": "인천광역시 미추홀구 인주대로35번길 46, 숭의동 근린생활시설 1층 (숭의동)",
   "phone": "032-887-5950",
   "x": 126.6432989,
   "y": 37.46153651
 },
 {
   "place_name": "굿모닝약국",
   "address_name": "인천광역시 미추홀구 소성로 333, 1층 (문학동)",
   "phone": "032-433-2555",
   "x": 126.6842583,
   "y": 37.437606
 },
 {
   "place_name": "혜은약국",
   "address_name": "인천광역시 미추홀구 인하로262번길 6, 1층 (주안동)",
   "phone": "032-872-8101",
   "x": 126.6771449,
   "y": 37.44791546
 },
 {
   "place_name": "주안허브약국",
   "address_name": "인천광역시 미추홀구 주안로 지하 86, 주안역 지하도상가 239호 (주안동)",
   "phone": "032-863-1253",
   "x": 126.6801622,
   "y": 37.46440408
 },
 {
   "place_name": "시민온누리약국",
   "address_name": "인천광역시 미추홀구 미추홀대로 688, 1층 101호 (주안동)",
   "phone": "032-505-3600",
   "x": 126.6804925,
   "y": 37.45874708
 },
 {
   "place_name": "365열린온누리약국",
   "address_name": "인천광역시 미추홀구 낙섬중로 105, 유원빌딩 1층 101호 (용현동)",
   "phone": "032-891-0012",
   "x": 126.6413111,
   "y": 37.45676189
 },
 {
   "place_name": "튼튼약국",
   "address_name": "인천광역시 미추홀구 경인로 430, 1층 (주안동)",
   "phone": "032-425-8239",
   "x": 126.6878774,
   "y": 37.45762847
 },
 {
   "place_name": "인하사랑약국",
   "address_name": "인천광역시 미추홀구 인하로77번길 6 (용현동)",
   "phone": "032-872-9094",
   "x": 126.6571942,
   "y": 37.45133745
 },
 {
   "place_name": "희망약국",
   "address_name": "인천광역시 미추홀구 미추홀대로 573, 1층 (주안동)",
   "phone": "032-876-3700",
   "x": 126.6793109,
   "y": 37.44853109
 },
 {
   "place_name": "수약국",
   "address_name": "인천광역시 미추홀구 독배로317번길 23, 1층 103호 (용현동, 해성프라자)",
   "phone": "032-887-7501",
   "x": 126.6474644,
   "y": 37.44789211
 },
 {
   "place_name": "바른약국",
   "address_name": "인천광역시 미추홀구 낙섬중로 40 (용현동)",
   "phone": "032-886-5324",
   "x": 126.6377271,
   "y": 37.45169834
 },
 {
   "place_name": "세인약국",
   "address_name": "인천광역시 미추홀구 제일로 42-1 (도화동)",
   "phone": "032-876-0151",
   "x": 126.6749179,
   "y": 37.45857642
 },
 {
   "place_name": "중앙메디칼약국",
   "address_name": "인천광역시 미추홀구 독배로 311, 1층 110호 (용현동, 비젼프라자)",
   "phone": "032-612-6772",
   "x": 126.6491199,
   "y": 37.44814633
 },
 {
   "place_name": "서해안약국",
   "address_name": "인천광역시 미추홀구 용삼길 34 (용현동)",
   "phone": "032-886-6863",
   "x": 126.6515888,
   "y": 37.45770701
 },
 {
   "place_name": "명성약국",
   "address_name": "인천광역시 미추홀구 소성로 136, 1층 102호 (학익동)",
   "phone": "032-873-3203",
   "x": 126.6636844,
   "y": 37.44290186
 },
 {
   "place_name": "명성약국",
   "address_name": "인천광역시 미추홀구 소성로 136, 1층 102호 (학익동)",
   "phone": "032-873-3203",
   "x": 126.6636844,
   "y": 37.44290186
 },
 {
   "place_name": "세계로건강약국",
   "address_name": "인천광역시 미추홀구 경원대로 858, 1층 (주안동, 씨티프라자)",
   "phone": "032-427-0606",
   "x": 126.6898437,
   "y": 37.45936589
 },
 {
   "place_name": "신보건약국",
   "address_name": "인천광역시 미추홀구 주안서로 26-1, 1층 (주안동)",
   "phone": "032-865-0407",
   "x": 126.6779009,
   "y": 37.46102184
 },
 {
   "place_name": "사랑약국",
   "address_name": "인천광역시 미추홀구 석정로 306, 1층 106호 (도화동, 삼원상가)",
   "phone": "032-863-1289",
   "x": 126.6693296,
   "y": 37.46781889
 },
 {
   "place_name": "제일약국",
   "address_name": "인천광역시 미추홀구 인주대로 396, 1층 (주안동)",
   "phone": "032-431-0390",
   "x": 126.6806182,
   "y": 37.45110784
 },
 {
   "place_name": "삼성약국",
   "address_name": "인천광역시 미추홀구 석정로 379, 신동반점 1층 (주안동)",
   "phone": "032-561-0378",
   "x": 126.6776789,
   "y": 37.46728799
 },
 {
   "place_name": "다온약국",
   "address_name": "인천광역시 미추홀구 미추홀대로722번길 12, 한국빌딩 101호 (주안동)",
   "phone": "032-433-0112",
   "x": 126.6809998,
   "y": 37.46173622
 },
 {
   "place_name": "올리브온누리약국",
   "address_name": "인천광역시 미추홀구 아암대로29번길 48 (용현동, 백운프라자)",
   "phone": "032-883-0145",
   "x": 126.6390543,
   "y": 37.45711159
 },
 {
   "place_name": "다정약국",
   "address_name": "인천광역시 미추홀구 미추홀대로 663-1, 1층 (주안동)",
   "phone": "032-873-8575",
   "x": 126.6796895,
   "y": 37.45669427
 },
 {
   "place_name": "도화태평양약국",
   "address_name": "인천광역시 미추홀구 제일로 34, 1층 (도화동)",
   "phone": "070-8845-6257",
   "x": 126.6739283,
   "y": 37.45859537
 },
 {
   "place_name": "한아름약국",
   "address_name": "인천광역시 미추홀구 경원대로 869 (주안동, 르네상스빌딩)",
   "phone": "032-420-1245",
   "x": 126.6891393,
   "y": 37.46039526
 },
 {
   "place_name": "행복약국",
   "address_name": "인천광역시 미추홀구 한나루로 589, 102호 (도화동)",
   "phone": "032-861-9991",
   "x": 126.6717801,
   "y": 37.45865245
 },
 {
   "place_name": "지우약국",
   "address_name": "인천광역시 미추홀구 토금남로 65, 1층 (용현동, 용현프라자 (106호))",
   "phone": "032-886-8009",
   "x": 126.6391605,
   "y": 37.45024861
 },
 {
   "place_name": "용일약국",
   "address_name": "인천광역시 미추홀구 인주대로 273, 1층 (주안동)",
   "phone": "032-873-9965",
   "x": 126.6668801,
   "y": 37.45265107
 },
 {
   "place_name": "봄약국",
   "address_name": "인천광역시 미추홀구 독배로 498, 1층 (숭의동)",
   "phone": "032-887-1733",
   "x": 126.6438298,
   "y": 37.46189305
 },
 {
   "place_name": "청구약국",
   "address_name": "인천광역시 미추홀구 경원대로 773, 1층 103호 (주안동)",
   "phone": "032-424-0041",
   "x": 126.6894786,
   "y": 37.45181341
 },
 {
   "place_name": "주안온누리약국",
   "address_name": "인천광역시 미추홀구 인하로352번길 3, 1층 (주안동)",
   "phone": "032-422-3412",
   "x": 126.6874678,
   "y": 37.44793614
 },
 {
   "place_name": "바로약국",
   "address_name": "인천광역시 미추홀구 수봉로 20, 1층 (숭의동)",
   "phone": "032-885-2503",
   "x": 126.6561538,
   "y": 37.46438379
 },
 {
   "place_name": "화생당약국",
   "address_name": "인천광역시 미추홀구 길파로 30 (주안동)",
   "phone": "032-866-1892",
   "x": 126.6798653,
   "y": 37.46835777
 },
 {
   "place_name": "화생당약국",
   "address_name": "인천광역시 미추홀구 길파로 30 (주안동)",
   "phone": "032-866-1892",
   "x": 126.6798653,
   "y": 37.46835777
 },
 {
   "place_name": "나라약국",
   "address_name": "인천광역시 미추홀구 인주대로458번길 6 (주안동)",
   "phone": "032-427-9200",
   "x": 126.6872309,
   "y": 37.45050679
 },
 {
   "place_name": "인소망약국",
   "address_name": "인천광역시 미추홀구 미추로 52 (숭의동)",
   "phone": "032-873-7426",
   "x": 126.646235,
   "y": 37.46460548
 },
 {
   "place_name": "열린연세약국",
   "address_name": "인천광역시 미추홀구 토금남로 53 (용현동, 한양프라자 105호)",
   "phone": "032-882-7749",
   "x": 126.638087,
   "y": 37.45081765
 },
 {
   "place_name": "파랑새약국",
   "address_name": "인천광역시 미추홀구 장천로112번길 3 (숭의동)",
   "phone": "032-873-6788",
   "x": 126.6565394,
   "y": 37.46289364
 },
 {
   "place_name": "대학약국",
   "address_name": "인천광역시 미추홀구 방축로 216, C동 1층 102호 (도화동)",
   "phone": "032-715-5556",
   "x": 126.6674948,
   "y": 37.47795739
 },
 {
   "place_name": "건강프라자약국",
   "address_name": "인천광역시 미추홀구 경인로 431-1 (주안동)",
   "phone": "032-429-7888",
   "x": 126.6881579,
   "y": 37.4582873
 },
 {
   "place_name": "건강프라자약국",
   "address_name": "인천광역시 미추홀구 경인로 431-1 (주안동)",
   "phone": "032-429-7888",
   "x": 126.6881579,
   "y": 37.4582873
 },
 {
   "place_name": "은혜약국",
   "address_name": "인천광역시 미추홀구 경인로 128 (숭의동)",
   "phone": "032-884-5848",
   "x": 126.6568205,
   "y": 37.46599628
 },
 {
   "place_name": "조은약국",
   "address_name": "인천광역시 미추홀구 독배로 429 (용현동)",
   "phone": "032-885-9500",
   "x": 126.6490958,
   "y": 37.45775668
 },
 {
   "place_name": "천사약국",
   "address_name": "인천광역시 미추홀구 낙섬중로38번길 2, 1층 (용현동)",
   "phone": "032-441-9801",
   "x": 126.6375336,
   "y": 37.45144239
 },
 {
   "place_name": "학익프라자약국",
   "address_name": "인천광역시 미추홀구 매소홀로 355 (학익동)",
   "phone": "032-865-7755",
   "x": 126.661976,
   "y": 37.44145102
 },
 {
   "place_name": "용남시장약국",
   "address_name": "인천광역시 미추홀구 인주대로266번길 17 (용현동)",
   "phone": "032-863-7022",
   "x": 126.6656816,
   "y": 37.45195309
 },
 {
   "place_name": "신우리들 약국",
   "address_name": "인천광역시 미추홀구 매소홀로 63, 107호 (용현동)",
   "phone": "032-886-9005",
   "x": 126.633271,
   "y": 37.45018646
 },
 {
   "place_name": "맑은약국",
   "address_name": "인천광역시 미추홀구 경원대로652번길 31 (관교동)",
   "phone": "032-439-6200",
   "x": 126.6947482,
   "y": 37.44216216
 },
 {
   "place_name": "연세메디칼약국",
   "address_name": "인천광역시 미추홀구 토금중로40번길 11 (용현동)",
   "phone": "032-881-9959",
   "x": 126.6375515,
   "y": 37.45204075
 },
 {
   "place_name": "한사랑약국",
   "address_name": "인천광역시 미추홀구 석정로 411  (주안동,금창빌딩 402호)",
   "phone": "032-874-7789",
   "x": 126.6813629,
   "y": 37.46693501
 },
 {
   "place_name": "신기메디칼약국",
   "address_name": "인천광역시 미추홀구 인하로 273 (주안동)",
   "phone": "070-4575-8358",
   "x": 126.6785337,
   "y": 37.44832848
 },
 {
   "place_name": "주안백화점약국",
   "address_name": "인천광역시 미추홀구 한나루로 500-1 (주안동)",
   "phone": "032-861-1545",
   "x": 126.6676289,
   "y": 37.45152516
 },
 {
   "place_name": "서울온누리약국",
   "address_name": "인천광역시 미추홀구 인주대로469번길 20  (주안동)",
   "phone": "032-425-4858",
   "x": 126.6891143,
   "y": 37.45178612
 },
 {
   "place_name": "새희망약국",
   "address_name": "인천광역시 미추홀구 낙섬중로 54  (용현동)",
   "phone": "032-888-3040",
   "x": 126.6385415,
   "y": 37.45278031
 },
 {
   "place_name": "서해약국",
   "address_name": "인천광역시 미추홀구 아암대로 87  (용현동)",
   "phone": "032-884-3950",
   "x": 126.6336177,
   "y": 37.45382251
 },
 {
   "place_name": "성모제일약국",
   "address_name": "인천광역시 미추홀구 경인로 486 (주안동)",
   "phone": "032-575-8584",
   "x": 126.6937399,
   "y": 37.45927987
 },
 {
   "place_name": "대마옵티마약국",
   "address_name": "인천광역시 미추홀구 제일로 21-2 (도화동)",
   "phone": "032-868-9419",
   "x": 126.6727419,
   "y": 37.45909868
 },
 {
   "place_name": "신동아청수약국",
   "address_name": "인천광역시 미추홀구 매소홀로 470  (학익동)",
   "phone": "032-868-5929",
   "x": 126.6743454,
   "y": 37.43929705
 },
 {
   "place_name": "참조은약국",
   "address_name": "인천광역시 미추홀구 제일로 38  (도화동)",
   "phone": "032-876-5025",
   "x": 126.6743991,
   "y": 37.45858064
 },
 {
   "place_name": "인천터미널약국",
   "address_name": "인천광역시 미추홀구 연남로 35  (관교동,인천터미널 1층)",
   "phone": "032-432-0231",
   "x": 126.7020816,
   "y": 37.43986946
 },
 {
   "place_name": "메디팜큰사랑약국",
   "address_name": "인천광역시 미추홀구 아암대로29번길 86  (용현동)",
   "phone": "032-566-6677",
   "x": 126.6409028,
   "y": 37.45631618
 },
 {
   "place_name": "메디칼약국",
   "address_name": "인천광역시 미추홀구 인하로 251 (주안동)",
   "phone": "032-873-8783",
   "x": 126.6759492,
   "y": 37.44850202
 },
 {
   "place_name": "정다운약국",
   "address_name": "인천광역시 미추홀구 인중로 13, 햇살병원 1층 좌측호 (숭의동)",
   "phone": "032-882-5914",
   "x": 126.6410154,
   "y": 37.46247878
 },
 {
   "place_name": "미소약국",
   "address_name": "인천광역시 미추홀구 주안로 226, 217호 (주안동, 주안더월드스테이트 1단지 중심상가동 217호)",
   "phone": "032-215-1585",
   "x": 126.6950863,
   "y": 37.46308823
 },
 {
   "place_name": "코끼리약국",
   "address_name": "인천광역시 미추홀구 인주대로35번길 46 (숭의동)",
   "phone": "032-886-0860",
   "x": 126.6432989,
   "y": 37.46153651
 },
 {
   "place_name": "건강플러스약국",
   "address_name": "인천광역시 미추홀구 매소홀로 340, 209호 (학익동, 풍림아이원아파트상가)",
   "phone": "032-867-7110",
   "x": 126.6586803,
   "y": 37.44155488
 },
 {
   "place_name": "천우약국",
   "address_name": "인천광역시 미추홀구 경원대로 856 (주안동)",
   "phone": "032-422-5644",
   "x": 126.6897708,
   "y": 37.45911184
 },
 {
   "place_name": "서광약국",
   "address_name": "인천광역시 미추홀구 경인로 347  (주안동,1층)",
   "phone": "032-863-3534",
   "x": 126.678706,
   "y": 37.45880678
 },
 {
   "place_name": "라성약국",
   "address_name": "인천광역시 미추홀구 미추홀대로722번길 8 (주안동)",
   "phone": "032-831-6065",
   "x": 126.6807859,
   "y": 37.46171112
 },
 {
   "place_name": "을지약국",
   "address_name": "인천광역시 미추홀구 인하로 121 (용현동)",
   "phone": "032-861-1181",
   "x": 126.6616451,
   "y": 37.45002267
 },
 {
   "place_name": "행복한약국",
   "address_name": "인천광역시 미추홀구 미추홀대로722번길 6 (주안동)",
   "phone": "032-421-3868",
   "x": 126.6806426,
   "y": 37.46176313
 },
 {
   "place_name": "문학사랑약국",
   "address_name": "인천광역시 미추홀구 소성로326번길 4 (문학동)",
   "phone": "032-432-5639",
   "x": 126.6832927,
   "y": 37.43720273
 },
 {
   "place_name": "다나은 온누리 약국",
   "address_name": "인천광역시 미추홀구 소성로 6  (용현동,홈플러스(인하점) 지하1층)",
   "phone": "032-876-0197",
   "x": 126.6508491,
   "y": 37.44706696
 },
 {
   "place_name": "VIP우리약국",
   "address_name": "인천광역시 미추홀구 경인로 433 (주안동)",
   "phone": "032-438-3667",
   "x": 126.6884072,
   "y": 37.45823836
 },
 {
   "place_name": "늘푸른약국",
   "address_name": "인천광역시 미추홀구 인하로 261 (주안동)",
   "phone": "032-865-5336",
   "x": 126.6772391,
   "y": 37.44840853
 },
 {
   "place_name": "위드팜굿모닝약국",
   "address_name": "인천광역시 미추홀구 석정로 430 (주안동)",
   "phone": "032-863-3900",
   "x": 126.6832595,
   "y": 37.46637812
 },
 {
   "place_name": "중앙약국",
   "address_name": "인천광역시 미추홀구 매소홀로 474 (학익동)",
   "phone": "032-874-5494",
   "x": 126.6747117,
   "y": 37.43926473
 },
 {
   "place_name": "고일약국",
   "address_name": "인천광역시 미추홀구 소성로 150 (학익동)",
   "phone": "032-62-8275",
   "x": 126.6650076,
   "y": 37.44234445
 },
 {
   "place_name": "큰나무약국",
   "address_name": "인천광역시 미추홀구 매소홀로 442 (학익동)",
   "phone": "032-873-8087",
   "x": 126.6710364,
   "y": 37.43953411
 },
 {
   "place_name": "인천교약국",
   "address_name": "인천광역시 미추홀구 방축로 240 (도화동)",
   "phone": "032-875-8984",
   "x": 126.6699937,
   "y": 37.4768573
 },
 {
   "place_name": "미래약국",
   "address_name": "인천광역시 미추홀구 인주대로 186 (용현동)",
   "phone": "032-867-3588",
   "x": 126.6575841,
   "y": 37.45519575
 },
 {
   "place_name": "용현독일약국",
   "address_name": "인천광역시 미추홀구 독정이로 7 (용현동)",
   "phone": "032-882-8899",
   "x": 126.6546775,
   "y": 37.45677714
 },
 {
   "place_name": "한솔약국",
   "address_name": "인천광역시 미추홀구 인하로 211 (주안동)",
   "phone": "032-868-8066",
   "x": 126.6714534,
   "y": 37.44874217
 },
 {
   "place_name": "다사랑약국",
   "address_name": "인천광역시 미추홀구 한나루로 379 (학익동)",
   "phone": "032-862-1494",
   "x": 126.6630039,
   "y": 37.44195964
 },
 {
   "place_name": "현대메디칼약국",
   "address_name": "인천광역시 미추홀구 낙섬서로 4 (용현동)",
   "phone": "032-889-1891",
   "x": 126.6336731,
   "y": 37.44999561
 },
 {
   "place_name": "명문약국",
   "address_name": "인천광역시 미추홀구 낙섬중로 15-1 (용현동)",
   "phone": "032-884-2243",
   "x": 126.6359659,
   "y": 37.4500654
 },
 {
   "place_name": "동인당약국",
   "address_name": "인천광역시 미추홀구 석정로 125 (숭의동)",
   "phone": "032-763-7022",
   "x": 126.6491681,
   "y": 37.46883592
 },
 {
   "place_name": "청사랑약국",
   "address_name": "인천광역시 미추홀구 제일로 42 (도화동)",
   "phone": "032-873-9141",
   "x": 126.6747127,
   "y": 37.45860085
 },
 {
   "place_name": "도화약국",
   "address_name": "인천광역시 미추홀구 한나루로 585 (도화동)",
   "phone": "032-864-7488",
   "x": 126.6716929,
   "y": 37.45848058
 },
 {
   "place_name": "넘버원약국",
   "address_name": "인천광역시 미추홀구 소성로 133  (학익동)",
   "phone": "032-889-1414",
   "x": 126.6636474,
   "y": 37.44336922
 },
 {
   "place_name": "태성약국",
   "address_name": "인천광역시 미추홀구 미추홀대로 696 (주안동)",
   "phone": "032-427-0540",
   "x": 126.6804192,
   "y": 37.45956445
 },
 {
   "place_name": "김재준약국",
   "address_name": "인천광역시 미추홀구 미추홀대로 576 (주안동)",
   "phone": "032-432-4320",
   "x": 126.680012,
   "y": 37.44876797
 },
 {
   "place_name": "주안동서약국",
   "address_name": "인천광역시 미추홀구 미추홀대로 700 (주안동)",
   "phone": "032-429-4767",
   "x": 126.6804781,
   "y": 37.45987249
 },
 {
   "place_name": "영약국",
   "address_name": "인천광역시 미추홀구 문화로 45 (관교동)",
   "phone": "032-441-0814",
   "x": 126.6985725,
   "y": 37.44343202
 },
 {
   "place_name": "백화점약국",
   "address_name": "인천광역시 미추홀구 미추홀대로 722 (주안동)",
   "phone": "032-428-2759",
   "x": 126.6804921,
   "y": 37.46175641
 },
 {
   "place_name": "우성약국",
   "address_name": "인천광역시 미추홀구 석정로 389-5 (주안동)",
   "phone": "032-862-8676",
   "x": 126.6787896,
   "y": 37.46718539
 },
 {
   "place_name": "신천지약국",
   "address_name": "인천광역시 미추홀구 경인로 485 (주안동)",
   "phone": "032-438-2233",
   "x": 126.6934628,
   "y": 37.45975001
 },
 {
   "place_name": "보건온누리약국",
   "address_name": "인천광역시 미추홀구 석바위로 42 (주안동)",
   "phone": "032-874-4971",
   "x": 126.6775526,
   "y": 37.4605609
 },
 {
   "place_name": "예지원약국",
   "address_name": "인천광역시 미추홀구 미추홀대로 581 (주안동)",
   "phone": "032-873-2141",
   "x": 126.6793081,
   "y": 37.44936591
 },
 {
   "place_name": "온누리동산약국",
   "address_name": "인천광역시 미추홀구 길파로 26 (주안동)",
   "phone": "032-875-0022",
   "x": 126.6797983,
   "y": 37.4680768
 },
 {
   "place_name": "독일약국",
   "address_name": "인천광역시 미추홀구 석정로 459 (주안동)",
   "phone": "032-864-6248",
   "x": 126.6866491,
   "y": 37.46638456
 },
 {
   "place_name": "수성당약국",
   "address_name": "인천광역시 미추홀구 경인로 344 (주안동)",
   "phone": "032-866-6181",
   "x": 126.6781796,
   "y": 37.45835128
 },
 {
   "place_name": "참사랑약국",
   "address_name": "인천광역시 미추홀구 인하로 276 (주안동)",
   "phone": "032-872-2884",
   "x": 126.678719,
   "y": 37.44786557
 },
 {
   "place_name": "인암종로약국",
   "address_name": "인천광역시 미추홀구 석정로 327 (도화동)",
   "phone": "032-875-0509",
   "x": 126.6718081,
   "y": 37.46796591
 },
 {
   "place_name": "류형준힐링약국",
   "address_name": "인천광역시 미추홀구 주안로 51 (주안동)",
   "phone": "032-873-0016",
   "x": 126.6753422,
   "y": 37.46446852
 },
 {
   "place_name": "건강백세약국",
   "address_name": "인천광역시 미추홀구 미추홀대로 561 (주안동)",
   "phone": "032-874-1215",
   "x": 126.6789976,
   "y": 37.44758584
 },
 {
   "place_name": "민선당약국",
   "address_name": "인천광역시 미추홀구 인하로 269 (주안동)",
   "phone": "032-864-9282",
   "x": 126.6780584,
   "y": 37.4483094
 },
 {
   "place_name": "인영약국",
   "address_name": "인천광역시 미추홀구 인하로 301-1 (주안동)",
   "phone": "032-429-7561",
   "x": 126.6817718,
   "y": 37.44815715
 },
 {
   "place_name": "백제약국",
   "address_name": "인천광역시 미추홀구 수봉로 31, 1층 (숭의동)",
   "phone": "032-872-1686",
   "x": 126.6566979,
   "y": 37.46331625
 },
 {
   "place_name": "오거리약국",
   "address_name": "인천광역시 미추홀구 숙골로 57 (도화동)",
   "phone": "032-887-2463",
   "x": 126.6652449,
   "y": 37.46784869
 },
 {
   "place_name": "백제당약국",
   "address_name": "인천광역시 미추홀구 아암대로29번길 77, 1층 (용현동)",
   "phone": "032-766-9058",
   "x": 126.6407258,
   "y": 37.4567205
 },
 {
   "place_name": "명신약국",
   "address_name": "인천광역시 미추홀구 학익소로61번길 135 (학익동)",
   "phone": "032-874-3872",
   "x": 126.6778551,
   "y": 37.44337985
 },
 {
   "place_name": "대은약국",
   "address_name": "인천광역시 미추홀구 인하로119번길 13 (용현동)",
   "phone": "032-864-4479",
   "x": 126.661542,
   "y": 37.45064387
 },
 {
   "place_name": "주사랑약국",
   "address_name": "인천광역시 미추홀구 토금남로 31-1 (용현동)",
   "phone": "032-887-1005",
   "x": 126.6360314,
   "y": 37.45175022
 },
 {
   "place_name": "삼정약국",
   "address_name": "인천광역시 미추홀구 경인로 128-1 (숭의동)",
   "phone": "032-884-4674",
   "x": 126.6569201,
   "y": 37.46600267
 },
 {
   "place_name": "문학모범약국",
   "address_name": "인천광역시 미추홀구 매소홀로 578 (문학동)",
   "phone": "032-424-3120",
   "x": 126.6862259,
   "y": 37.43825276
 },
 {
   "place_name": "토지약국",
   "address_name": "인천광역시 미추홀구 낙섬중로 35  (용현동)",
   "phone": "032-887-0630",
   "x": 126.6372401,
   "y": 37.45153147
 },
 {
   "place_name": "파란약국",
   "address_name": "인천광역시 미추홀구 석정로 437 (주안동)",
   "phone": "032-867-7559",
   "x": 126.6841506,
   "y": 37.466649
 },
 {
   "place_name": "안약국",
   "address_name": "인천광역시 미추홀구 수봉로 55 (숭의동)",
   "phone": "032-868-3841",
   "x": 126.6582886,
   "y": 37.46163188
 },
 {
   "place_name": "정약국",
   "address_name": "인천광역시 미추홀구 경인로 391 (주안동)",
   "phone": "032-439-5913",
   "x": 126.6835466,
   "y": 37.45856541
 },
 {
   "place_name": "명문당약국",
   "address_name": "인천광역시 미추홀구 인주대로 191-1 (용현동)",
   "phone": "032-864-6569",
   "x": 126.6583389,
   "y": 37.45537689
 },
 {
   "place_name": "공단시장약국",
   "address_name": "인천광역시 미추홀구 길파로 16 (주안동)",
   "phone": "032-866-2165",
   "x": 126.6796694,
   "y": 37.46713625
 },
 {
   "place_name": "하나로약국",
   "address_name": "인천광역시 미추홀구 토금중로 13 (용현동)",
   "phone": "032-882-9796",
   "x": 126.635672,
   "y": 37.4538691
 },
 {
   "place_name": "주안메디카약국",
   "address_name": "인천광역시 미추홀구 석정로 436  (주안동)",
   "phone": "032-862-2797",
   "x": 126.6840161,
   "y": 37.46627969
 },
 {
   "place_name": "제도약국",
   "address_name": "인천광역시 미추홀구 인하로 296, 108,109호 (주안동, 쌍용A상가내)",
   "phone": "032-425-0831",
   "x": 126.680941,
   "y": 37.4476872
 },
 {
   "place_name": "민중약국",
   "address_name": "인천광역시 미추홀구 한나루로 400 (학익동)",
   "phone": "032-863-5549",
   "x": 126.6650977,
   "y": 37.4430741
 },
 {
   "place_name": "푸른약국",
   "address_name": "인천광역시 미추홀구 수봉로182번길 45 (주안동)",
   "phone": "032-862-3785",
   "x": 126.6672009,
   "y": 37.45742598
 },
 {
   "place_name": "약손약국",
   "address_name": "인천광역시 미추홀구 토금남로 29, 1층 (용현동)",
   "phone": "032-884-1886",
   "x": 126.6357712,
   "y": 37.4518847
 },
 {
   "place_name": "부처산약국",
   "address_name": "인천광역시 미추홀구 미추홀대로 735 (주안동)",
   "phone": "032-875-1118",
   "x": 126.6800789,
   "y": 37.46322725
 },
 {
   "place_name": "운현약국",
   "address_name": "인천광역시 미추홀구 경인로34번길 4 (숭의동)",
   "phone": "032-883-2038",
   "x": 126.6469518,
   "y": 37.46366541
 },
 {
   "place_name": "청수당약국",
   "address_name": "인천광역시 미추홀구 석정로 300 (도화동)",
   "phone": "032-875-1929",
   "x": 126.6687891,
   "y": 37.46786917
 },
 {
   "place_name": "오성약국",
   "address_name": "인천광역시 미추홀구 한나루로 499-3 (용현동)",
   "phone": "032-873-3280",
   "x": 126.6671276,
   "y": 37.45154759
 },
 {
   "place_name": "신태양옵티마약국",
   "address_name": "인천광역시 미추홀구 인주대로 332, 104호 (주안동)",
   "phone": "032-875-6234",
   "x": 126.6733714,
   "y": 37.45141341
 },
 {
   "place_name": "우일약국",
   "address_name": "인천광역시 미추홀구 동주길135번길 20-6 (주안동)",
   "phone": "032-425-2958",
   "x": 126.6839604,
   "y": 37.45749116
 },
 {
   "place_name": "길정약국",
   "address_name": "인천광역시 미추홀구 인주대로 261 (주안동)",
   "phone": "032-862-1069",
   "x": 126.6657919,
   "y": 37.45303098
 },
 {
   "place_name": "정성약국",
   "address_name": "인천광역시 미추홀구 신기길58번길 43-3 (주안동)",
   "phone": "032-873-0931",
   "x": 126.6743811,
   "y": 37.44543884
 },
 {
   "place_name": "한신약국",
   "address_name": "인천광역시 미추홀구 경원대로 717 (주안동)",
   "phone": "032-422-9578",
   "x": 126.6887575,
   "y": 37.44654457
 },
 {
   "place_name": "기성약국",
   "address_name": "인천광역시 미추홀구 낙섬중로 51 (용현동)",
   "phone": "032-884-2691",
   "x": 126.6381404,
   "y": 37.45269284
 },
 {
   "place_name": "중화약국",
   "address_name": "인천광역시 미추홀구 석정로 16 (숭의동)",
   "phone": "032-882-2845",
   "x": 126.6425361,
   "y": 37.46112771
 },
 {
   "place_name": "종로사약국",
   "address_name": "인천광역시 미추홀구 경인로 382-1 (주안동)",
   "phone": "032-425-3632",
   "x": 126.6824863,
   "y": 37.45814004
 },
 {
   "place_name": "성우약국",
   "address_name": "인천광역시 미추홀구 한나루로 389, 1층 (학익동)",
   "phone": "032-883-5752",
   "x": 126.6636696,
   "y": 37.44271139
 },
 {
   "place_name": "부영약국",
   "address_name": "인천광역시 미추홀구 한나루로 411 (학익동)",
   "phone": "032-875-2391",
   "x": 126.6650328,
   "y": 37.44439862
 },
 {
   "place_name": "만화약국",
   "address_name": "인천광역시 미추홀구 미추로 25 (숭의동)",
   "phone": "032-883-3446",
   "x": 126.6468318,
   "y": 37.46233957
 },
 {
   "place_name": "100세약국",
   "address_name": "인천광역시 남동구 남동대로 892, 1층 (간석동)",
   "phone": "",
   "x": 126.7086436,
   "y": 37.46207114
 },
 {
   "place_name": "21세기길약국",
   "address_name": "인천광역시 남동구 독점로29번길 30, 103,105호 (구월동)",
   "phone": "",
   "x": 126.7092798,
   "y": 37.45252217
 },
 {
   "place_name": "21세기약국",
   "address_name": "인천광역시 남동구 만수로 47, 102호 (만수동)",
   "phone": "",
   "x": 126.7335491,
   "y": 37.46054528
 },
 {
   "place_name": "365라피에스타약국",
   "address_name": "인천광역시 남동구 논고개로 61, 라피에스타 (논현동)",
   "phone": "",
   "x": 126.7275206,
   "y": 37.3975373
 },
 {
   "place_name": "365행복약국",
   "address_name": "인천광역시 남동구 논고개로123번길 35, 칼리오페 1층 A동 126호 (논현동)",
   "phone": "",
   "x": 126.7220657,
   "y": 37.40151709
 },
 {
   "place_name": "가산메디칼약국",
   "address_name": "인천광역시 남동구 논고개로 71, 108호 (논현동, 가산타워)",
   "phone": "",
   "x": 126.7268435,
   "y": 37.3980151
 },
 {
   "place_name": "간석비타민약국",
   "address_name": "인천광역시 남동구 호구포로 886, 101호 (간석동)",
   "phone": "",
   "x": 126.7204709,
   "y": 37.46142751
 },
 {
   "place_name": "간석약국",
   "address_name": "인천광역시 남동구 석정로 518, 1동 1층 7호 (간석동)",
   "phone": "",
   "x": 126.6934576,
   "y": 37.46536313
 },
 {
   "place_name": "간석열린약국",
   "address_name": "인천광역시 남동구 남동대로 889-1, B01호 (간석동)",
   "phone": "",
   "x": 126.7080072,
   "y": 37.46190013
 },
 {
   "place_name": "간석온누리약국",
   "address_name": "인천광역시 남동구 경원대로 971 (간석동, 홈플러스 2층일부)",
   "phone": "",
   "x": 126.6891079,
   "y": 37.46958772
 },
 {
   "place_name": "간석태평양약국",
   "address_name": "인천광역시 남동구 석산로 52 (간석동)",
   "phone": "",
   "x": 126.6975756,
   "y": 37.46102187
 },
 {
   "place_name": "강약국",
   "address_name": "인천광역시 남동구 용천로 170 (간석동)",
   "phone": "",
   "x": 126.7144631,
   "y": 37.46473957
 },
 {
   "place_name": "건강길약국",
   "address_name": "인천광역시 남동구 인주대로623번길 62, 1층일부, 2층전부호 (구월동)",
   "phone": "",
   "x": 126.7068268,
   "y": 37.45269159
 },
 {
   "place_name": "건강대찬약국",
   "address_name": "인천광역시 남동구 예술로174번길 30, 101호 (구월동, 세연아파트상가)",
   "phone": "",
   "x": 126.7028317,
   "y": 37.44947176
 },
 {
   "place_name": "건강마을온누리약국",
   "address_name": "인천광역시 남동구 인주대로 845, 1층 (만수동)",
   "phone": "",
   "x": 126.7313317,
   "y": 37.4487118
 },
 {
   "place_name": "건강약국",
   "address_name": "인천광역시 남동구 인주대로 541 (구월동)",
   "phone": "",
   "x": 126.6969376,
   "y": 37.45056521
 },
 {
   "place_name": "경도약국",
   "address_name": "인천광역시 남동구 호구포로535번길 48-2 (남촌동, 1층일부)",
   "phone": "",
   "x": 126.715629,
   "y": 37.43004191
 },
 {
   "place_name": "경동약국",
   "address_name": "인천광역시 남동구 구월로 376, 101호 (만수동, 정은프라자)",
   "phone": "",
   "x": 126.7323056,
   "y": 37.4547133
 },
 {
   "place_name": "경희논현한약국",
   "address_name": "인천광역시 남동구 장도로 4, 105호 (논현동)",
   "phone": "",
   "x": 126.7351996,
   "y": 37.40503462
 },
 {
   "place_name": "고운정약국",
   "address_name": "인천광역시 남동구 남동대로922번길 52, 1층 일부 (간석동)",
   "phone": "",
   "x": 126.7111969,
   "y": 37.46469979
 },
 {
   "place_name": "고은약국",
   "address_name": "인천광역시 남동구 구월말로 117, 1층 (만수동)",
   "phone": "",
   "x": 126.725349,
   "y": 37.45967825
 },
 {
   "place_name": "공단약국",
   "address_name": "인천광역시 남동구 남동대로239번길 72-20, 101-4호 (논현동, 두레비지니스센터)",
   "phone": "",
   "x": 126.6956777,
   "y": 37.40917215
 },
 {
   "place_name": "구월대형약국",
   "address_name": "인천광역시 남동구 남동대로 780, 1,2층 1호 (구월동)",
   "phone": "",
   "x": 126.7084344,
   "y": 37.45194974
 },
 {
   "place_name": "구월메디칼약국",
   "address_name": "인천광역시 남동구 인주대로623번길 54, 1층 (구월동)",
   "phone": "",
   "x": 126.7067995,
   "y": 37.45233086
 },
 {
   "place_name": "구월약국",
   "address_name": "인천광역시 남동구 호구포로 830, 1층 일부 (구월동)",
   "phone": "",
   "x": 126.7197932,
   "y": 37.45632022
 },
 {
   "place_name": "구월우리약국",
   "address_name": "인천광역시 남동구 인하로507번길 18, 103호 (구월동)",
   "phone": "",
   "x": 126.7032565,
   "y": 37.44400107
 },
 {
   "place_name": "구월조은약국",
   "address_name": "인천광역시 남동구 구월말로3번길 20-1 (구월동, 1층일부)",
   "phone": "",
   "x": 126.7230168,
   "y": 37.44937517
 },
 {
   "place_name": "구월프라자약국",
   "address_name": "인천광역시 남동구 구월로 284 (구월동, 1층일부)",
   "phone": "",
   "x": 126.7219732,
   "y": 37.45550318
 },
 {
   "place_name": "그린약국",
   "address_name": "인천광역시 남동구 석산로 131, 1층 1호 (간석동)",
   "phone": "",
   "x": 126.7064185,
   "y": 37.46049689
 },
 {
   "place_name": "그린팜약국",
   "address_name": "인천광역시 남동구 석산로 171, 동양스포츠센타 1층 (간석동)",
   "phone": "",
   "x": 126.7110687,
   "y": 37.46083106
 },
 {
   "place_name": "그린팜우리약국",
   "address_name": "인천광역시 남동구 논고개로 325, 1층 (도림동)",
   "phone": "",
   "x": 126.7291225,
   "y": 37.41920399
 },
 {
   "place_name": "기린약국",
   "address_name": "인천광역시 남동구 인하로 607, 모아프라자(근생9-1-2) (구월동)",
   "phone": "",
   "x": 126.7143951,
   "y": 37.44313373
 },
 {
   "place_name": "기쁨플러스약국",
   "address_name": "인천광역시 남동구 백범로 399, 106호 (간석동, 아트폴리스)",
   "phone": "",
   "x": 126.7068933,
   "y": 37.46700214
 },
 {
   "place_name": "김약국",
   "address_name": "인천광역시 남동구 인하로507번길 4, 101호 (구월동, 벽성빌딩)",
   "phone": "",
   "x": 126.7031953,
   "y": 37.44344417
 },
 {
   "place_name": "꽃길약국",
   "address_name": "인천광역시 남동구 소래역남로 20 (논현동)",
   "phone": "",
   "x": 126.734742,
   "y": 37.39809461
 },
 {
   "place_name": "남동약국",
   "address_name": "인천광역시 남동구 은청로 4-7, 남동공단산업용품상가 A동 1층 150호 (고잔동)",
   "phone": "",
   "x": 126.6934021,
   "y": 37.40694607
 },
 {
   "place_name": "남동온누리약국",
   "address_name": "인천광역시 남동구 장승남로33번길 9, 대동아파트상가 110동 1층 107,108호 (만수동)",
   "phone": "",
   "x": 126.7357554,
   "y": 37.44374248
 },
 {
   "place_name": "남촌약국",
   "address_name": "인천광역시 남동구 남촌동로35번길 4 (남촌동, 1층일부)",
   "phone": "",
   "x": 126.7145965,
   "y": 37.43190762
 },
 {
   "place_name": "남촌중앙약국",
   "address_name": "인천광역시 남동구 남촌동로25번길 4, 101호 (남촌동)",
   "phone": "",
   "x": 126.7156976,
   "y": 37.43193188
 },
 {
   "place_name": "내보람약국",
   "address_name": "인천광역시 남동구 서창남로 16-1 (서창동)",
   "phone": "",
   "x": 126.7520586,
   "y": 37.42155857
 },
 {
   "place_name": "녹지원약국",
   "address_name": "인천광역시 남동구 만수로 107, 1층 (만수동)",
   "phone": "",
   "x": 126.7377298,
   "y": 37.46473872
 },
 {
   "place_name": "논현그린약국",
   "address_name": "인천광역시 남동구 논고개로 73 (논현동)",
   "phone": "",
   "x": 126.726555,
   "y": 37.39826109
 },
 {
   "place_name": "논현모두약국",
   "address_name": "인천광역시 남동구 논고개로 86, 101호 (논현동, 모아프라자)",
   "phone": "",
   "x": 126.7262104,
   "y": 37.39942492
 },
 {
   "place_name": "논현센타약국",
   "address_name": "인천광역시 남동구 논고개로123번길 17, 116,117호 (논현동, 아이플렉스)",
   "phone": "",
   "x": 126.7230836,
   "y": 37.40168486
 },
 {
   "place_name": "논현스타약국",
   "address_name": "인천광역시 남동구 논고개로 93, 보미리즌텔 110호 (논현동)",
   "phone": "",
   "x": 126.7248192,
   "y": 37.39951162
 },
 {
   "place_name": "논현이화약국",
   "address_name": "인천광역시 남동구 논고개로 101, 505-1호 (논현동, 아름다운타워)",
   "phone": "",
   "x": 126.7243954,
   "y": 37.39999441
 },
 {
   "place_name": "논현조은약국",
   "address_name": "인천광역시 남동구 논고개로 80, 나로프라자 1층 104호 (논현동)",
   "phone": "",
   "x": 126.7265349,
   "y": 37.39917917
 },
 {
   "place_name": "논현종로약국",
   "address_name": "인천광역시 남동구 청능대로 583, 107호 (논현동, 중앙프라자)",
   "phone": "",
   "x": 126.7239314,
   "y": 37.4013772
 },
 {
   "place_name": "논현참사랑약국",
   "address_name": "인천광역시 남동구 논현역로 8, 105호 (논현동, 아이엠프라자)",
   "phone": "",
   "x": 126.7209915,
   "y": 37.40146153
 },
 {
   "place_name": "논현큰사랑약국",
   "address_name": "인천광역시 남동구 앵고개로847번길 50, 107,108호 (논현동, 토브타워)",
   "phone": "",
   "x": 126.7255268,
   "y": 37.39833548
 },
 {
   "place_name": "논현프라자약국",
   "address_name": "인천광역시 남동구 논고개로 117, 메트로타워 (논현동)",
   "phone": "",
   "x": 126.7238604,
   "y": 37.40168771
 },
 {
   "place_name": "늘사랑약국",
   "address_name": "인천광역시 남동구 문화서로4번길 38 (구월동)",
   "phone": "",
   "x": 126.6969274,
   "y": 37.44477631
 },
 {
   "place_name": "늘온누리약국",
   "address_name": "인천광역시 남동구 서창남순환로215번길 17, 114호 (서창동)",
   "phone": "",
   "x": 126.7475897,
   "y": 37.42472661
 },
 {
   "place_name": "늘좋은약국",
   "address_name": "인천광역시 남동구 독점로30번길 1 (구월동)",
   "phone": "",
   "x": 126.7111104,
   "y": 37.45242065
 },
 {
   "place_name": "늘편안약국",
   "address_name": "인천광역시 남동구 호구포로 818, 퍼스트하임프라자 4층 404-1호 (구월동)",
   "phone": "",
   "x": 126.7196674,
   "y": 37.45536395
 },
 {
   "place_name": "늘푸른약국",
   "address_name": "인천광역시 남동구 석정로 571, 102호 (간석동, 정은아파트)",
   "phone": "",
   "x": 126.6986826,
   "y": 37.46702219
 },
 {
   "place_name": "다나약국",
   "address_name": "인천광역시 남동구 장아산로 186, 104호 (서창동)",
   "phone": "",
   "x": 126.7514885,
   "y": 37.43490515
 },
 {
   "place_name": "다복약국",
   "address_name": "인천광역시 남동구 선수촌공원로23번길 6-29, 1층 104호 (구월동)",
   "phone": "",
   "x": 126.7094032,
   "y": 37.44255179
 },
 {
   "place_name": "다인약국",
   "address_name": "인천광역시 남동구 호구포로 770, 1층 102호 (구월동)",
   "phone": "",
   "x": 126.7191255,
   "y": 37.45101027
 },
 {
   "place_name": "다정약국",
   "address_name": "인천광역시 남동구 구월로 263 (구월동)",
   "phone": "",
   "x": 126.7198229,
   "y": 37.4560455
 },
 {
   "place_name": "대웅약국",
   "address_name": "인천광역시 남동구 장승남로 36, 1층 (만수동, 만수프라자)",
   "phone": "",
   "x": 126.7361888,
   "y": 37.4431594
 },
 {
   "place_name": "대학약국",
   "address_name": "인천광역시 남동구 구월로 332 (만수동)",
   "phone": "",
   "x": 126.7274199,
   "y": 37.45511528
 },
 {
   "place_name": "대한약국",
   "address_name": "인천광역시 남동구 앵고개로 963, 1층 (논현동)",
   "phone": "",
   "x": 126.7370547,
   "y": 37.40364949
 },
 {
   "place_name": "동서약국",
   "address_name": "인천광역시 남동구 논고개로 121, 108호 (논현동, 에스닷몰)",
   "phone": "",
   "x": 126.7237703,
   "y": 37.4019294
 },
 {
   "place_name": "동양약국",
   "address_name": "인천광역시 남동구 만수로 39, 2층 111호 (만수동, 만수상사아파트)",
   "phone": "",
   "x": 126.7326218,
   "y": 37.46028003
 },
 {
   "place_name": "동호튼튼약국",
   "address_name": "인천광역시 남동구 용천로 70, 1층 (구월동, 동호프라자)",
   "phone": "",
   "x": 126.7149558,
   "y": 37.45587022
 },
 {
   "place_name": "로데오약국",
   "address_name": "인천광역시 남동구 인하로507번길 63, 112,113호 (구월동)",
   "phone": "",
   "x": 126.7028341,
   "y": 37.44618635
 },
 {
   "place_name": "리즈약국",
   "address_name": "인천광역시 남동구 석산로 159, 4층 (간석동)",
   "phone": "",
   "x": 126.7097387,
   "y": 37.46076133
 },
 {
   "place_name": "만수윤약국",
   "address_name": "인천광역시 남동구 만수로 45, 1층 일부호 (만수동)",
   "phone": "",
   "x": 126.7333352,
   "y": 37.46045033
 },
 {
   "place_name": "매일여는온누리약국",
   "address_name": "인천광역시 남동구 예술로 198, CGV 홈플러스 (구월동)",
   "phone": "",
   "x": 126.7019485,
   "y": 37.45173603
 },
 {
   "place_name": "메드칼약국",
   "address_name": "인천광역시 남동구 백범로 322, 1층 (간석동, 진메디칼센타)",
   "phone": "",
   "x": 126.7145668,
   "y": 37.46414321
 },
 {
   "place_name": "메디팜서창약국",
   "address_name": "인천광역시 남동구 서창남순환로215번길 35, 109호 (서창동)",
   "phone": "",
   "x": 126.7470565,
   "y": 37.42548712
 },
 {
   "place_name": "명지약국",
   "address_name": "인천광역시 남동구 담방로 105, 7701동 103호 (만수동, 만수주공7단지임대상가)",
   "phone": "",
   "x": 126.7388944,
   "y": 37.45108741
 },
 {
   "place_name": "모래내 참사랑약국",
   "address_name": "인천광역시 남동구 구월남로 283, 106호 (구월동)",
   "phone": "",
   "x": 126.7211362,
   "y": 37.45226398
 },
 {
   "place_name": "모래내시장역미래약국",
   "address_name": "인천광역시 남동구 구월로 268, 대성빌딩 104호 (구월동)",
   "phone": "",
   "x": 126.7203015,
   "y": 37.45561943
 },
 {
   "place_name": "모래내시장온누리약국",
   "address_name": "인천광역시 남동구 호구포로 794-1, 1층 (구월동)",
   "phone": "",
   "x": 126.7193519,
   "y": 37.45322684
 },
 {
   "place_name": "모래내약국",
   "address_name": "인천광역시 남동구 구월남로 280 (구월동, 알파프라자 105호)",
   "phone": "",
   "x": 126.7207946,
   "y": 37.45195418
 },
 {
   "place_name": "모범약국",
   "address_name": "인천광역시 남동구 인주대로 660 (구월동)",
   "phone": "",
   "x": 126.7103715,
   "y": 37.44930939
 },
 {
   "place_name": "미래약국",
   "address_name": "인천광역시 남동구 정각로 2, 1층 (구월동, 21세기병원)",
   "phone": "",
   "x": 126.7021632,
   "y": 37.45493953
 },
 {
   "place_name": "미성약국",
   "address_name": "인천광역시 남동구 만수서로 62 (만수동)",
   "phone": "",
   "x": 126.7330581,
   "y": 37.4614265
 },
 {
   "place_name": "미소약국",
   "address_name": "인천광역시 남동구 서창남순환로215번길 48, 102호 (서창동)",
   "phone": "",
   "x": 126.7476062,
   "y": 37.42618241
 },
 {
   "place_name": "바로약국",
   "address_name": "인천광역시 남동구 인주대로 645, 대신빌딩 A동 101호 (구월동)",
   "phone": "",
   "x": 126.7087554,
   "y": 37.44992168
 },
 {
   "place_name": "밝은약국",
   "address_name": "인천광역시 남동구 호구포로 818, 203호 (구월동, 퍼스트하임프라자)",
   "phone": "",
   "x": 126.7196674,
   "y": 37.45536395
 },
 {
   "place_name": "베스트약국",
   "address_name": "인천광역시 남동구 서창남순환로 222, 108호 (서창동, 센타프라자)",
   "phone": "",
   "x": 126.7494751,
   "y": 37.42415046
 },
 {
   "place_name": "벧엘약국",
   "address_name": "인천광역시 남동구 구월로 212, 216호 (구월동, 힐캐슬프라자)",
   "phone": "",
   "x": 126.7140281,
   "y": 37.4559925
 },
 {
   "place_name": "보광약국",
   "address_name": "인천광역시 남동구 경인로 586 (간석동)",
   "phone": "",
   "x": 126.7029048,
   "y": 37.46416426
 },
 {
   "place_name": "보리수 한약국",
   "address_name": "인천광역시 남동구 석산로 211, 1층층 일부호 (간석동)",
   "phone": "",
   "x": 126.7155649,
   "y": 37.46081935
 },
 {
   "place_name": "복덩이약국",
   "address_name": "인천광역시 남동구 만수서로 35, 104호,105호 (만수동)",
   "phone": "",
   "x": 126.729899,
   "y": 37.461718
 },
 {
   "place_name": "봄빛약국",
   "address_name": "인천광역시 남동구 구월남로 190, 104호 (구월동, 퍼스트프라자)",
   "phone": "",
   "x": 126.7107056,
   "y": 37.45268267
 },
 {
   "place_name": "사랑길약국",
   "address_name": "인천광역시 남동구 독점로29번길 24 (구월동)",
   "phone": "",
   "x": 126.7095874,
   "y": 37.45250728
 },
 {
   "place_name": "사랑온누리약국",
   "address_name": "인천광역시 남동구 용천로 140, 1층 일부호 (간석동)",
   "phone": "",
   "x": 126.7146647,
   "y": 37.46201433
 },
 {
   "place_name": "살맛나는온누리약국",
   "address_name": "인천광역시 남동구 만수서로 52, 1층 104호 (만수동, 쓰리제이프라자)",
   "phone": "",
   "x": 126.7317617,
   "y": 37.46145305
 },
 {
   "place_name": "삼성약국",
   "address_name": "인천광역시 남동구 만수서로3번길 16 (만수동)",
   "phone": "",
   "x": 126.7268536,
   "y": 37.45994733
 },
 {
   "place_name": "삼정프라자약국",
   "address_name": "인천광역시 남동구 용천로88번길 3 (구월동, 1층일부)",
   "phone": "",
   "x": 126.7151507,
   "y": 37.45737227
 },
 {
   "place_name": "새길약국",
   "address_name": "인천광역시 남동구 독점로29번길 38 (구월동, 1층)",
   "phone": "",
   "x": 126.7088281,
   "y": 37.45254276
 },
 {
   "place_name": "새대찬약국",
   "address_name": "인천광역시 남동구 인주대로 594, 1층 (구월동)",
   "phone": "",
   "x": 126.7028148,
   "y": 37.4497352
 },
 {
   "place_name": "새백화점약국",
   "address_name": "인천광역시 남동구 남동대로 875 (간석동)",
   "phone": "",
   "x": 126.7081162,
   "y": 37.46067836
 },
 {
   "place_name": "새봄약국",
   "address_name": "인천광역시 남동구 구월로 348, 광산빌딩 (만수동)",
   "phone": "",
   "x": 126.7292064,
   "y": 37.45497137
 },
 {
   "place_name": "새솔약국",
   "address_name": "인천광역시 남동구 장승남로 38, 102호 (만수동, 반달프라자)",
   "phone": "",
   "x": 126.7364128,
   "y": 37.44315526
 },
 {
   "place_name": "새육일약국",
   "address_name": "인천광역시 남동구 남동대로 705, 1층 (구월동)",
   "phone": "",
   "x": 126.7066746,
   "y": 37.44521728
 },
 {
   "place_name": "샛별약국",
   "address_name": "인천광역시 남동구 담방로 45, 2층 (만수동)",
   "phone": "",
   "x": 126.7381078,
   "y": 37.44370927
 },
 {
   "place_name": "생생온누리약국",
   "address_name": "인천광역시 남동구 남동대로 931, 103호 (간석동)",
   "phone": "",
   "x": 126.7074952,
   "y": 37.46548623
 },
 {
   "place_name": "생활과건강약국",
   "address_name": "인천광역시 남동구 용천로 154, 101~103호 (간석동)",
   "phone": "",
   "x": 126.7147441,
   "y": 37.46321032
 },
 {
   "place_name": "서울메디카약국",
   "address_name": "인천광역시 남동구 포구로 96, 203호 (논현동, 주공13단지상가)",
   "phone": "",
   "x": 126.7342911,
   "y": 37.40659602
 },
 {
   "place_name": "서창약국",
   "address_name": "인천광역시 남동구 매소홀로 1137, 1층 (서창동)",
   "phone": "",
   "x": 126.7491054,
   "y": 37.43860254
 },
 {
   "place_name": "성모약국",
   "address_name": "인천광역시 남동구 남동대로 875, 세화빌딩 (간석동)",
   "phone": "",
   "x": 126.7081162,
   "y": 37.46067836
 },
 {
   "place_name": "성수약국",
   "address_name": "인천광역시 남동구 백범로124번길 7, 122호 (만수동)",
   "phone": "",
   "x": 126.7333732,
   "y": 37.45555281
 },
 {
   "place_name": "세계로약국",
   "address_name": "인천광역시 남동구 백범로 376, 106호 (간석동, 도시타워)",
   "phone": "",
   "x": 126.7094742,
   "y": 37.46668143
 },
 {
   "place_name": "세화한약국",
   "address_name": "인천광역시 남동구 남동대로837번길 1, 3층 (간석동)",
   "phone": "",
   "x": 126.7083506,
   "y": 37.457221
 },
 {
   "place_name": "소래약국",
   "address_name": "인천광역시 남동구 앵고개로 928, 108호 (논현동, 디에이프라자)",
   "phone": "",
   "x": 126.7339207,
   "y": 37.40177928
 },
 {
   "place_name": "소명약국",
   "address_name": "인천광역시 남동구 백범로 204 (만수동, 1층일부)",
   "phone": "",
   "x": 126.7267101,
   "y": 37.45974124
 },
 {
   "place_name": "속편한 온누리약국",
   "address_name": "인천광역시 남동구 호구포로 893, 1층 (간석동, 중앙빌딩)",
   "phone": "",
   "x": 126.7200186,
   "y": 37.46217598
 },
 {
   "place_name": "솔약국",
   "address_name": "인천광역시 남동구 서창남로 77, 1층 107호 (서창동)",
   "phone": "",
   "x": 126.7482462,
   "y": 37.42589128
 },
 {
   "place_name": "수약국",
   "address_name": "인천광역시 남동구 구월로 75-1 (간석동)",
   "phone": "",
   "x": 126.6988975,
   "y": 37.45727447
 },
 {
   "place_name": "스마일약국",
   "address_name": "인천광역시 남동구 호구포로 921, 109호 (간석동, 청산빌딩)",
   "phone": "",
   "x": 126.7205465,
   "y": 37.46476183
 },
 {
   "place_name": "스타약국",
   "address_name": "인천광역시 남동구 서창남순환로216번길 12, 월드타워 (서창동)",
   "phone": "",
   "x": 126.7485709,
   "y": 37.42352052
 },
 {
   "place_name": "신간석시장약국",
   "address_name": "인천광역시 남동구 백범로 312-92 (간석동)",
   "phone": "",
   "x": 126.7157957,
   "y": 37.46348203
 },
 {
   "place_name": "신광약국",
   "address_name": "인천광역시 남동구 장수로 27, 102호 (장수동, 주공아파트상가)",
   "phone": "",
   "x": 126.7485357,
   "y": 37.4517632
 },
 {
   "place_name": "신성모약국",
   "address_name": "인천광역시 남동구 인주대로623번길 60, 구월빌딩 (구월동)",
   "phone": "",
   "x": 126.7068235,
   "y": 37.45260143
 },
 {
   "place_name": "신세계약국",
   "address_name": "인천광역시 남동구 호구포로 872, 1층 (구월동)",
   "phone": "",
   "x": 126.7202875,
   "y": 37.46003037
 },
 {
   "place_name": "신이화약국",
   "address_name": "인천광역시 남동구 에코중앙로156번길 5-12, 1층 (논현동)",
   "phone": "",
   "x": 126.726657,
   "y": 37.39142259
 },
 {
   "place_name": "신현프라자약국",
   "address_name": "인천광역시 남동구 인주대로 582, 108호 (구월동, 신현프라자)",
   "phone": "",
   "x": 126.7015905,
   "y": 37.44978102
 },
 {
   "place_name": "실로암약국",
   "address_name": "인천광역시 남동구 남동대로 890, 101호 (간석동, 탑메디칼빌딩)",
   "phone": "",
   "x": 126.708656,
   "y": 37.46183688
 },
 {
   "place_name": "아름다운건강 한약국",
   "address_name": "인천광역시 남동구 호구포로 920, 212호 (만수동, 햇빛마을벽산아파트상가)",
   "phone": "",
   "x": 126.7211807,
   "y": 37.46432886
 },
 {
   "place_name": "아름다운약국",
   "address_name": "인천광역시 남동구 용천로 157 (간석동)",
   "phone": "",
   "x": 126.7142252,
   "y": 37.46369585
 },
 {
   "place_name": "아름드리약국",
   "address_name": "인천광역시 남동구 선수촌로 37, 103호 (구월동, SJ프라자)",
   "phone": "",
   "x": 126.7145075,
   "y": 37.44265117
 },
 {
   "place_name": "아시아드메디칼온누리약국",
   "address_name": "인천광역시 남동구 인하로 568, 104호 (구월동, 아시아드타워(상업5-2))",
   "phone": "",
   "x": 126.7097095,
   "y": 37.44250994
 },
 {
   "place_name": "아침을여는세명약국",
   "address_name": "인천광역시 남동구 만수로 65 (만수동)",
   "phone": "",
   "x": 126.7351297,
   "y": 37.46161118
 },
 {
   "place_name": "애플약국",
   "address_name": "인천광역시 남동구 구월로 212, 힐캐슬프라자 315호 (구월동)",
   "phone": "",
   "x": 126.7140281,
   "y": 37.4559925
 },
 {
   "place_name": "양지약국",
   "address_name": "인천광역시 남동구 백범로 119, 1층 (만수동)",
   "phone": "",
   "x": 126.7335488,
   "y": 37.45441157
 },
 {
   "place_name": "양지온누리약국",
   "address_name": "인천광역시 남동구 에코중앙로156번길 5-19 (논현동)",
   "phone": "",
   "x": 126.7265908,
   "y": 37.39188185
 },
 {
   "place_name": "어울림약국",
   "address_name": "인천광역시 남동구 석산로 138, 1-104호 (간석동, 어울림아파트상가)",
   "phone": "",
   "x": 126.7082091,
   "y": 37.4583772
 },
 {
   "place_name": "에스약국",
   "address_name": "인천광역시 남동구 인하로 501, 1층 (구월동)",
   "phone": "",
   "x": 126.7023741,
   "y": 37.44352534
 },
 {
   "place_name": "에코메트로약국",
   "address_name": "인천광역시 남동구 에코중앙로156번길 5-23, 1층 (논현동, 에코그린타워1)",
   "phone": "",
   "x": 126.7267999,
   "y": 37.39208602
 },
 {
   "place_name": "연공약국",
   "address_name": "인천광역시 남동구 남동대로 886, 105,106호 (간석동)",
   "phone": "",
   "x": 126.7086966,
   "y": 37.4616028
 },
 {
   "place_name": "연공온누리약국",
   "address_name": "인천광역시 남동구 비류대로 763, 남촌 농산물 도매시장 지1층 E03호 (남촌동)",
   "phone": "",
   "x": 126.7191708,
   "y": 37.42270804
 },
 {
   "place_name": "연두약국",
   "address_name": "인천광역시 남동구 인하로489번길 4, 1층일부호 (구월동, 교보생명)",
   "phone": "",
   "x": 126.7012459,
   "y": 37.44364616
 },
 {
   "place_name": "연세프라자약국",
   "address_name": "인천광역시 남동구 구월로 280 (구월동, 1층일부)",
   "phone": "",
   "x": 126.7216389,
   "y": 37.45551108
 },
 {
   "place_name": "열린약국",
   "address_name": "인천광역시 남동구 성말로13번길 15 (구월동, 메인프라자 303-1호 일부)",
   "phone": "",
   "x": 126.7017869,
   "y": 37.44626257
 },
 {
   "place_name": "열매약국",
   "address_name": "인천광역시 남동구 남동대로 743, 1층 (구월동)",
   "phone": "",
   "x": 126.7071738,
   "y": 37.44873139
 },
 {
   "place_name": "영광약국",
   "address_name": "인천광역시 남동구 장승남로 54, 106호 (만수동, 신영프라자)",
   "phone": "",
   "x": 126.7382651,
   "y": 37.44317731
 },
 {
   "place_name": "영신약국",
   "address_name": "인천광역시 남동구 인주대로 861 (만수동, 1층일부)",
   "phone": "",
   "x": 126.7331381,
   "y": 37.44861087
 },
 {
   "place_name": "영약국",
   "address_name": "인천광역시 남동구 인하로 616, 105호 (구월동, 커뮤니티프라자)",
   "phone": "",
   "x": 126.7152048,
   "y": 37.44252402
 },
 {
   "place_name": "영진약국",
   "address_name": "인천광역시 남동구 호구포로535번길 24, 광천빌딩 1층 106호 (남촌동)",
   "phone": "",
   "x": 126.7168625,
   "y": 37.43010084
 },
 {
   "place_name": "예술회관역약국",
   "address_name": "인천광역시 남동구 예술로 지하 172, 예술회관역 지2층 NO.28 (구월동)",
   "phone": "",
   "x": 126.7011672,
   "y": 37.44945259
 },
 {
   "place_name": "오아시스약국",
   "address_name": "인천광역시 남동구 인하로 497-8, 1층 일부호 (구월동, 오아시스빌딩)",
   "phone": "",
   "x": 126.7020677,
   "y": 37.44356834
 },
 {
   "place_name": "오약국",
   "address_name": "인천광역시 남동구 서창남순환로 140, 1층 105호 (서창동)",
   "phone": "",
   "x": 126.7437424,
   "y": 37.427156
 },
 {
   "place_name": "온누리명성약국",
   "address_name": "인천광역시 남동구 만수로 43 (만수동, 1층일부)",
   "phone": "",
   "x": 126.733174,
   "y": 37.46032084
 },
 {
   "place_name": "온누리미성약국",
   "address_name": "인천광역시 남동구 백범로 206 (만수동)",
   "phone": "",
   "x": 126.7263569,
   "y": 37.45993164
 },
 {
   "place_name": "온누리은혜약국",
   "address_name": "인천광역시 남동구 장승로 14 (만수동)",
   "phone": "",
   "x": 126.7342893,
   "y": 37.44617007
 },
 {
   "place_name": "온누리이레약국",
   "address_name": "인천광역시 남동구 경인로644번길 28-1 (간석동)",
   "phone": "",
   "x": 126.7096667,
   "y": 37.46678971
 },
 {
   "place_name": "온누리인제약국",
   "address_name": "인천광역시 남동구 남동대로 885 (간석동)",
   "phone": "",
   "x": 126.7080181,
   "y": 37.46147657
 },
 {
   "place_name": "올리브약국",
   "address_name": "인천광역시 남동구 성말로13번길 20, 101호 (구월동)",
   "phone": "",
   "x": 126.7024078,
   "y": 37.4462792
 },
 {
   "place_name": "올리브약국",
   "address_name": "인천광역시 남동구 남동대로 893 (간석동)",
   "phone": "",
   "x": 126.7080011,
   "y": 37.46207802
 },
 {
   "place_name": "우리들약국",
   "address_name": "인천광역시 남동구 호구포로 788 (구월동)",
   "phone": "",
   "x": 126.719314,
   "y": 37.45265648
 },
 {
   "place_name": "우리약국",
   "address_name": "인천광역시 남동구 독곡로6번길 4, 1층 (서창동)",
   "phone": "",
   "x": 126.7468559,
   "y": 37.43796395
 },
 {
   "place_name": "우리온누리약국",
   "address_name": "인천광역시 남동구 구월로 212, 1601동 234호 (구월동, 힐캐슬프라자)",
   "phone": "",
   "x": 126.7140281,
   "y": 37.4559925
 },
 {
   "place_name": "우성약국",
   "address_name": "인천광역시 남동구 방축로 503, 108호 (간석동, 우성상가)",
   "phone": "",
   "x": 126.6936213,
   "y": 37.46598275
 },
 {
   "place_name": "원약국",
   "address_name": "인천광역시 남동구 백범로 325-2, 1층 (간석동)",
   "phone": "",
   "x": 126.7137707,
   "y": 37.46391023
 },
 {
   "place_name": "유성약국",
   "address_name": "인천광역시 남동구 백범로 338 (간석동)",
   "phone": "",
   "x": 126.7131515,
   "y": 37.46486497
 },
 {
   "place_name": "윤약국",
   "address_name": "인천광역시 남동구 문화서로 5-1 (구월동)",
   "phone": "",
   "x": 126.6953852,
   "y": 37.44607945
 },
 {
   "place_name": "윤정희약국",
   "address_name": "인천광역시 남동구 포구로 64-35 (논현동)",
   "phone": "",
   "x": 126.7370862,
   "y": 37.40570029
 },
 {
   "place_name": "은하약국",
   "address_name": "인천광역시 남동구 만수로 63, 만수 쎈타 플라자 101-2호 (만수동)",
   "phone": "",
   "x": 126.7347932,
   "y": 37.46142197
 },
 {
   "place_name": "은혜약국",
   "address_name": "인천광역시 남동구 백범로 274 (간석동)",
   "phone": "",
   "x": 126.7192153,
   "y": 37.4618744
 },
 {
   "place_name": "이레약국",
   "address_name": "인천광역시 남동구 구월남로 172 (구월동)",
   "phone": "",
   "x": 126.7084125,
   "y": 37.45275297
 },
 {
   "place_name": "이로운약국",
   "address_name": "인천광역시 남동구 논고개로 77, 에코타워 1층 109호 (논현동)",
   "phone": "",
   "x": 126.7262544,
   "y": 37.39843822
 },
 {
   "place_name": "이약국",
   "address_name": "인천광역시 남동구 백범로 275 (간석동, 1층일부)",
   "phone": "",
   "x": 126.7188291,
   "y": 37.46143586
 },
 {
   "place_name": "이화약국",
   "address_name": "인천광역시 남동구 호구포로 796, 1층 (구월동)",
   "phone": "",
   "x": 126.7193519,
   "y": 37.4533587
 },
 {
   "place_name": "인천굿모닝약국",
   "address_name": "인천광역시 남동구 장승남로 37, 1층 (만수동, 스카이프라자)",
   "phone": "",
   "x": 126.7364056,
   "y": 37.44365096
 },
 {
   "place_name": "인천메디칼약국",
   "address_name": "인천광역시 남동구 인하로 497-5, 103호 (구월동, 푸른세상안과)",
   "phone": "",
   "x": 126.7015897,
   "y": 37.44360909
 },
 {
   "place_name": "일등메디칼약국",
   "address_name": "인천광역시 남동구 청능대로 581, 103호 (논현동, 광성프라자)",
   "phone": "",
   "x": 126.7235885,
   "y": 37.4012758
 },
 {
   "place_name": "장수당약국",
   "address_name": "인천광역시 남동구 장자로 14 (장수동)",
   "phone": "",
   "x": 126.7512896,
   "y": 37.45032608
 },
 {
   "place_name": "재준약국",
   "address_name": "인천광역시 남동구 호구포로 808, 102호 (구월동, 수전빌딩)",
   "phone": "",
   "x": 126.7195176,
   "y": 37.45448757
 },
 {
   "place_name": "정다운약국",
   "address_name": "인천광역시 남동구 만수로 7 (만수동)",
   "phone": "",
   "x": 126.7299281,
   "y": 37.45819057
 },
 {
   "place_name": "정문약국",
   "address_name": "인천광역시 남동구 인주대로653번길 36, 1층 (구월동)",
   "phone": "",
   "x": 126.7098664,
   "y": 37.45137912
 },
 {
   "place_name": "제일약국",
   "address_name": "인천광역시 남동구 구월로 223, 108호 (구월동, 위너스프라자)",
   "phone": "",
   "x": 126.7156346,
   "y": 37.45650685
 },
 {
   "place_name": "조은약국",
   "address_name": "인천광역시 남동구 남동대로370번길 113, 101호 (논현동, 우진프라자)",
   "phone": "",
   "x": 126.7119699,
   "y": 37.41378532
 },
 {
   "place_name": "종로약국",
   "address_name": "인천광역시 남동구 경인로 668 (간석동)",
   "phone": "",
   "x": 126.7082827,
   "y": 37.46949134
 },
 {
   "place_name": "종로프라자약국",
   "address_name": "인천광역시 남동구 백범로 372, 수피아타워 101호 (간석동)",
   "phone": "",
   "x": 126.7099094,
   "y": 37.46650073
 },
 {
   "place_name": "주공약국",
   "address_name": "인천광역시 남동구 백범로 183 (만수동, 1층전부)",
   "phone": "",
   "x": 126.7280344,
   "y": 37.45816244
 },
 {
   "place_name": "준약국",
   "address_name": "인천광역시 남동구 경인로 594, 1층 일부 (간석동)",
   "phone": "",
   "x": 126.7038761,
   "y": 37.46433639
 },
 {
   "place_name": "중앙약국",
   "address_name": "인천광역시 남동구 논고개로 114, 105호 (논현동, 에이스타워)",
   "phone": "",
   "x": 126.7246686,
   "y": 37.40144405
 },
 {
   "place_name": "중앙판도라약국",
   "address_name": "인천광역시 남동구 남동대로 772, 1층 2호 (구월동, 동성빌딩)",
   "phone": "",
   "x": 126.7082572,
   "y": 37.45099204
 },
 {
   "place_name": "지성온누리약국",
   "address_name": "인천광역시 남동구 인주대로 664, 110호 (구월동, 메인프라자)",
   "phone": "",
   "x": 126.7108124,
   "y": 37.44916929
 },
 {
   "place_name": "진약국",
   "address_name": "인천광역시 남동구 청능대로 596, B2층 J5호 (논현동, 홈플러스인천논현점)",
   "phone": "",
   "x": 126.7256487,
   "y": 37.40062231
 },
 {
   "place_name": "차세대건강약국",
   "address_name": "인천광역시 남동구 논고개로 87, 108호 (논현동, 논현메디스타워)",
   "phone": "",
   "x": 126.7253229,
   "y": 37.39907542
 },
 {
   "place_name": "참사랑약국",
   "address_name": "인천광역시 남동구 복개동로 64 (만수동, 1층일부)",
   "phone": "",
   "x": 126.725599,
   "y": 37.45345839
 },
 {
   "place_name": "참약국",
   "address_name": "인천광역시 남동구 논고개로 337, 1층 (도림동)",
   "phone": "",
   "x": 126.730066,
   "y": 37.41991094
 },
 {
   "place_name": "참정다운약국",
   "address_name": "인천광역시 남동구 소래로669번길 38, 1층 4호 (만수동)",
   "phone": "",
   "x": 126.7321717,
   "y": 37.45010985
 },
 {
   "place_name": "참조은약국",
   "address_name": "인천광역시 남동구 석정로 501, 3층 309호 (간석동)",
   "phone": "",
   "x": 126.6912723,
   "y": 37.46602195
 },
 {
   "place_name": "참조은약국",
   "address_name": "인천광역시 남동구 문화서로4번길 4 (구월동)",
   "phone": "",
   "x": 126.6954581,
   "y": 37.44580169
 },
 {
   "place_name": "참큰약국",
   "address_name": "인천광역시 남동구 논고개로 114, 에이스타워 101,102호 (논현동)",
   "phone": "",
   "x": 126.7246686,
   "y": 37.40144405
 },
 {
   "place_name": "창일약국",
   "address_name": "인천광역시 남동구 장승로 38 (만수동)",
   "phone": "",
   "x": 126.7368264,
   "y": 37.44514434
 },
 {
   "place_name": "척도약국",
   "address_name": "인천광역시 남동구 구월로 235, 1층 (구월동)",
   "phone": "",
   "x": 126.716702,
   "y": 37.4564767
 },
 {
   "place_name": "천사약국",
   "address_name": "인천광역시 남동구 서창남순환로 2 (서창동)",
   "phone": "",
   "x": 126.7503372,
   "y": 37.4244669
 },
 {
   "place_name": "천지약국",
   "address_name": "인천광역시 남동구 담방로 39 (만수동)",
   "phone": "",
   "x": 126.7385219,
   "y": 37.44315084
 },
 {
   "place_name": "청솔온누리약국",
   "address_name": "인천광역시 남동구 남동대로 728, 1층 3호 (구월동, 명보빌딩상가)",
   "phone": "",
   "x": 126.7076044,
   "y": 37.44723128
 },
 {
   "place_name": "청십자약국",
   "address_name": "인천광역시 남동구 호구포로 798, 1층 (구월동)",
   "phone": "",
   "x": 126.7194181,
   "y": 37.45358664
 },
 {
   "place_name": "체리약국",
   "address_name": "인천광역시 남동구 예술로 126, 링크126 1층 125호 (구월동)",
   "phone": "",
   "x": 126.7008867,
   "y": 37.44512979
 },
 {
   "place_name": "큰샘약국",
   "address_name": "인천광역시 남동구 문화서로4번길 41-2 (구월동)",
   "phone": "",
   "x": 126.6973672,
   "y": 37.44488295
 },
 {
   "place_name": "타워약국",
   "address_name": "인천광역시 남동구 예술로 138, 137호 (구월동, 이토타워)",
   "phone": "",
   "x": 126.7010063,
   "y": 37.44624161
 },
 {
   "place_name": "탑프라자약국",
   "address_name": "인천광역시 남동구 경인로 520, B04-1호 (간석동, 탑프라자빌딩)",
   "phone": "",
   "x": 126.6970546,
   "y": 37.46077614
 },
 {
   "place_name": "태평양메디컬온누리약국",
   "address_name": "인천광역시 남동구 서창남로 81, 투엠프라자 1층 112,113호 (서창동)",
   "phone": "",
   "x": 126.7480495,
   "y": 37.42628663
 },
 {
   "place_name": "파랑새약국",
   "address_name": "인천광역시 남동구 함박뫼로 441, 109호 (논현동)",
   "phone": "",
   "x": 126.7115417,
   "y": 37.4094244
 },
 {
   "place_name": "퍼스트시티경도약국",
   "address_name": "인천광역시 남동구 호구포로 812, 102호 (구월동, 한빛하이존)",
   "phone": "",
   "x": 126.7195809,
   "y": 37.45478093
 },
 {
   "place_name": "평원약국",
   "address_name": "인천광역시 남동구 백범로180번길 93 (만수동)",
   "phone": "",
   "x": 126.7323246,
   "y": 37.46107579
 },
 {
   "place_name": "푸른약국",
   "address_name": "인천광역시 남동구 구월남로342번길 3 (만수동)",
   "phone": "",
   "x": 126.7278737,
   "y": 37.45159612
 },
 {
   "place_name": "플러스약국",
   "address_name": "인천광역시 남동구 서창남순환로 223, 130,131호 (서창동, 아페리온 A동)",
   "phone": "",
   "x": 126.7489215,
   "y": 37.42483648
 },
 {
   "place_name": "하나약국",
   "address_name": "인천광역시 남동구 포구로 75, 101호 (논현동, 송원빌딩)",
   "phone": "",
   "x": 126.7357553,
   "y": 37.40511825
 },
 {
   "place_name": "하늘약국",
   "address_name": "인천광역시 남동구 인주대로 664, 112호 (구월동, 메인프라자2차)",
   "phone": "",
   "x": 126.7108124,
   "y": 37.44916929
 },
 {
   "place_name": "한가람약국",
   "address_name": "인천광역시 남동구 남동대로 860, 106호 (간석동, 간석래미안자이1상가)",
   "phone": "",
   "x": 126.7089573,
   "y": 37.4601375
 },
 {
   "place_name": "한누리약국",
   "address_name": "인천광역시 남동구 호구포로 818, 111호 (구월동, 퍼스트하임프라자)",
   "phone": "",
   "x": 126.7196674,
   "y": 37.45536395
 },
 {
   "place_name": "한마음약국",
   "address_name": "인천광역시 남동구 만수로 14-70 (만수동)",
   "phone": "",
   "x": 126.7331196,
   "y": 37.45596362
 },
 {
   "place_name": "한빛약국",
   "address_name": "인천광역시 남동구 성말로13번길 15, 125호 (구월동, 메인프라자)",
   "phone": "",
   "x": 126.7017869,
   "y": 37.44626257
 },
 {
   "place_name": "한사랑약국",
   "address_name": "인천광역시 남동구 주안로 231 (간석동)",
   "phone": "",
   "x": 126.6955716,
   "y": 37.46350381
 },
 {
   "place_name": "한솔약국",
   "address_name": "인천광역시 남동구 만수로 47 (만수동)",
   "phone": "",
   "x": 126.7335491,
   "y": 37.46054528
 },
 {
   "place_name": "한약국",
   "address_name": "인천광역시 남동구 문화서로 26 (구월동)",
   "phone": "",
   "x": 126.6962429,
   "y": 37.44747453
 },
 {
   "place_name": "한일약국",
   "address_name": "인천광역시 남동구 남촌동로15번길 12 (남촌동)",
   "phone": "",
   "x": 126.7169796,
   "y": 37.43147726
 },
 {
   "place_name": "한진약국",
   "address_name": "인천광역시 남동구 경인로524번길 16 (간석동, 한진아파트)",
   "phone": "",
   "x": 126.6975087,
   "y": 37.45934491
 },
 {
   "place_name": "햇빛약국",
   "address_name": "인천광역시 남동구 호구포로 920, 309호 (만수동, 벽산아파트상가)",
   "phone": "",
   "x": 126.7211807,
   "y": 37.46432886
 },
 {
   "place_name": "행복한약국",
   "address_name": "인천광역시 남동구 경인로 770 (간석동)",
   "phone": "",
   "x": 126.7106869,
   "y": 37.47818957
 },
 {
   "place_name": "행복한우리약국",
   "address_name": "인천광역시 남동구 장승남로 46, 103호 (만수동, 조은빌딩)",
   "phone": "",
   "x": 126.7372448,
   "y": 37.44325077
 },
 {
   "place_name": "향촌우리약국",
   "address_name": "인천광역시 남동구 만수서로 56, 105호 (만수동, 향촌메디칼)",
   "phone": "",
   "x": 126.7322128,
   "y": 37.46143453
 },
 {
   "place_name": "현대약국",
   "address_name": "인천광역시 남동구 구월로 306, 상가동 108호 (만수동)",
   "phone": "",
   "x": 126.7244192,
   "y": 37.45534566
 },
 {
   "place_name": "호구포온누리약국",
   "address_name": "인천광역시 남동구 호구포로 220, 106호 (논현동, 명진프라자)",
   "phone": "",
   "x": 126.7103473,
   "y": 37.40237682
 },
 {
   "place_name": "훼미리약국",
   "address_name": "인천광역시 남동구 독점로3번길 26, 교동빌딩 (구월동)",
   "phone": "",
   "x": 126.709202,
   "y": 37.4501218
 },
 {
   "place_name": "휴먼시아약국",
   "address_name": "인천광역시 남동구 앵고개로847번길 64, 골든프라자 (논현동)",
   "phone": "",
   "x": 126.7249789,
   "y": 37.39874084
 },
 {
   "place_name": "희망약국",
   "address_name": "인천광역시 남동구 만수로100번길 3 (만수동)",
   "phone": "",
   "x": 126.7375379,
   "y": 37.46400406
 },
 {
   "place_name": "희망찬약국",
   "address_name": "인천광역시 남동구 남동대로 900 (간석동)",
   "phone": "",
   "x": 126.7085399,
   "y": 37.4627205
 },
 {
   "place_name": "힐링팜약국",
   "address_name": "인천광역시 남동구 미래로 6, 101호 (구월동)",
   "phone": "",
   "x": 126.7050734,
   "y": 37.45064059
 },
 {
   "place_name": "송도센트럴약국",
   "address_name": "인천광역시 연수구 송도국제대로 261, 114호 (송도동, 송도 더샵 센트럴시티)",
   "phone": "032-822-1718",
   "x": 126.6531653,
   "y": 37.37435213
 },
 {
   "place_name": "복음약국",
   "address_name": "인천광역시 연수구 먼우금로 88, 상산빌딩 304호 (동춘동)",
   "phone": "032-814-3608",
   "x": 126.6703662,
   "y": 37.40673033
 },
 {
   "place_name": "송도활기찬약국",
   "address_name": "인천광역시 연수구 신송로 166, 플러스원프라자 103호 (송도동)",
   "phone": "032-834-2480",
   "x": 126.6484564,
   "y": 37.39843865
 },
 {
   "place_name": "바른약국",
   "address_name": "인천광역시 연수구 먼우금로 190, 연수프라자 113호 (연수동)",
   "phone": "032-812-7180",
   "x": 126.6767145,
   "y": 37.41405315
 },
 {
   "place_name": "수프라자약국",
   "address_name": "인천광역시 연수구 앵고개로264번길 30-4, 영남프라자 1층 102호 (동춘동)",
   "phone": "032-814-8341",
   "x": 126.6718235,
   "y": 37.4068205
 },
 {
   "place_name": "솔빛약국",
   "address_name": "인천광역시 연수구 신송로 153, 더 마란츠타워 111,112호 (송도동)",
   "phone": "032-831-0040",
   "x": 126.64915,
   "y": 37.39716939
 },
 {
   "place_name": "송도캠퍼스약국",
   "address_name": "인천광역시 연수구 송도과학로27번길 55, 301동 3층 A-311호 (송도동, 롯데캐슬 캠퍼스타운)",
   "phone": "032-819-4450",
   "x": 126.6642625,
   "y": 37.38803709
 },
 {
   "place_name": "송도제일약국",
   "address_name": "인천광역시 연수구 송도국제대로 157, 오네스타 1층 A-111호 (송도동)",
   "phone": "032-817-8864",
   "x": 126.656664,
   "y": 37.38094137
 },
 {
   "place_name": "송도약국",
   "address_name": "인천광역시 연수구 한나루로196번길 2 (옥련동)",
   "phone": "032-834-5878",
   "x": 126.6571575,
   "y": 37.42658269
 },
 {
   "place_name": "퍼스트약국",
   "address_name": "인천광역시 연수구 컨벤시아대로230번길 42, 송도아라플라자 102-1호 (송도동)",
   "phone": "032-832-5975",
   "x": 126.6349141,
   "y": 37.38808525
 },
 {
   "place_name": "스퀘어365약국",
   "address_name": "인천광역시 연수구 청능대로 210, 스퀘어원 3층 (동춘동)",
   "phone": "032-456-4377",
   "x": 126.6836224,
   "y": 37.40599787
 },
 {
   "place_name": "송도더사랑약국",
   "address_name": "인천광역시 연수구 해돋이로 167, 힐링플라자 103호 (송도동)",
   "phone": "032-834-3366",
   "x": 126.6444898,
   "y": 37.39480243
 },
 {
   "place_name": "씨티온누리약국",
   "address_name": "인천광역시 연수구 해돋이로 168-15, 103호 (송도동, 글로벌시티프라자)",
   "phone": "032-831-6559",
   "x": 126.646154,
   "y": 37.39635911
 },
 {
   "place_name": "서울온누리약국",
   "address_name": "인천광역시 연수구 해돋이로 168, 102호 (송도동, 혜인프라자)",
   "phone": "070-4144-0075",
   "x": 126.6452107,
   "y": 37.3954284
 },
 {
   "place_name": "해든소망약국",
   "address_name": "인천광역시 연수구 먼우금로 189, 2층 (청학동, 소망글로벌)",
   "phone": "032-814-2600",
   "x": 126.6758537,
   "y": 37.41462402
 },
 {
   "place_name": "송도니트약국",
   "address_name": "인천광역시 연수구 컨벤시아대로 165, 5층 (송도동, 동북아트레이드타워)",
   "phone": "032-833-8324",
   "x": 126.6444433,
   "y": 37.38914157
 },
 {
   "place_name": "효약국",
   "address_name": "인천광역시 연수구 청학로 5 (청학동, 행복빌딩)",
   "phone": "032-833-5798",
   "x": 126.6632476,
   "y": 37.42755885
 },
 {
   "place_name": "송도우리약국",
   "address_name": "인천광역시 연수구 송도문화로84번길 24, 209호 (송도동, 송도에듀포레푸르지오)",
   "phone": "032-813-0507",
   "x": 126.6582747,
   "y": 37.37219271
 },
 {
   "place_name": "스마일약국",
   "address_name": "인천광역시 연수구 해돋이로 161, 105, 106호 (송도동, 세종프라자)",
   "phone": "032-831-5568",
   "x": 126.6453715,
   "y": 37.39450685
 },
 {
   "place_name": "캠퍼스메이플약국",
   "address_name": "인천광역시 연수구 송도과학로27번길 55, A동 107호 (송도동, 롯데캐슬캠퍼스타운)",
   "phone": "032-216-6369",
   "x": 126.6642625,
   "y": 37.38803709
 },
 {
   "place_name": "새봄약국",
   "address_name": "인천광역시 연수구 청능대로 210, 홈플러스 지하1층 X8,YK호 (동춘동)",
   "phone": "032-817-2722",
   "x": 126.6836224,
   "y": 37.40599787
 },
 {
   "place_name": "송도바이오약국",
   "address_name": "인천광역시 연수구 송도바이오대로 300 (송도동, 삼성바이오로직스)",
   "phone": "",
   "x": 126.6637288,
   "y": 37.36641654
 },
 {
   "place_name": "청학약국",
   "address_name": "인천광역시 연수구 청솔로 14, 1층 (청학동)",
   "phone": "032-833-7588",
   "x": 126.6614022,
   "y": 37.42784773
 },
 {
   "place_name": "한마음약국",
   "address_name": "인천광역시 연수구 송도문화로28번길 28, 203동 208호 (송도동, 송도글로벌캠퍼스푸르지오)",
   "phone": "070-4126-9715",
   "x": 126.6558312,
   "y": 37.3770832
 },
 {
   "place_name": "동아온누리약국",
   "address_name": "인천광역시 연수구 앵고개로264번길 10-1 (동춘동, 아촌빌딩)",
   "phone": "032-812-7582",
   "x": 126.6722791,
   "y": 37.40719559
 },
 {
   "place_name": "경동한약국",
   "address_name": "인천광역시 연수구 새말로 150, 2층 201호 (연수동, 주공3차아파트상가동)",
   "phone": "032-861-8275",
   "x": 126.6852137,
   "y": 37.41633721
 },
 {
   "place_name": "송도B1약국",
   "address_name": "인천광역시 연수구 송도국제대로 165, 지하1층 (송도동, 홈플러스 송도점)",
   "phone": "032-812-2582",
   "x": 126.656372,
   "y": 37.38022604
 },
 {
   "place_name": "중앙약국",
   "address_name": "인천광역시 연수구 신송로125번길 7, 4층 408호 (송도동, 이리옴프라자)",
   "phone": "032-831-9111",
   "x": 126.6515589,
   "y": 37.394948
 },
 {
   "place_name": "성약국",
   "address_name": "인천광역시 연수구 샘말로7번길 7, 1층 (연수동)",
   "phone": "032-817-5575",
   "x": 126.6773763,
   "y": 37.41217843
 },
 {
   "place_name": "송도바른약국",
   "address_name": "인천광역시 연수구 신송로 164, 1층 104호 (송도동, 아데니움프라자)",
   "phone": "032-834-4005",
   "x": 126.6488325,
   "y": 37.39820935
 },
 {
   "place_name": "센트럴파크약국",
   "address_name": "인천광역시 연수구 컨벤시아대로130번길 14, 1층 108,109호 (송도동)",
   "phone": "032-831-7507",
   "x": 126.6448885,
   "y": 37.39295519
 },
 {
   "place_name": "global연세약국",
   "address_name": "인천광역시 연수구 송도문화로28번길 28, 204동 1층 119호 (송도동, 글로벌캠퍼스푸르지오)",
   "phone": "032-811-0158",
   "x": 126.6558312,
   "y": 37.3770832
 },
 {
   "place_name": "늘사랑약국",
   "address_name": "인천광역시 연수구 앵고개로264번길 46, 105호 (동춘동)",
   "phone": "032-817-8999",
   "x": 126.6708243,
   "y": 37.40668514
 },
 {
   "place_name": "플러스약국",
   "address_name": "인천광역시 연수구 신송로 166, 1층 107호 (송도동, 플러스원프라자)",
   "phone": "070-4141-8628",
   "x": 126.6484564,
   "y": 37.39843865
 },
 {
   "place_name": "건강백세약국",
   "address_name": "인천광역시 연수구 학나래로6번길 6 (선학동)",
   "phone": "032-813-2273",
   "x": 126.6968297,
   "y": 37.42357347
 },
 {
   "place_name": "하늘약국",
   "address_name": "인천광역시 연수구 컨벤시아대로 177, 2층 (송도동, 롯데마트)",
   "phone": "070-4159-8817",
   "x": 126.6433245,
   "y": 37.38831432
 },
 {
   "place_name": "송도신세계약국",
   "address_name": "인천광역시 연수구 해돋이로 107, H동 8호 (송도동, 더퍼스트월드)",
   "phone": "032-835-7045",
   "x": 126.648814,
   "y": 37.38960577
 },
 {
   "place_name": "우리팜아름약국",
   "address_name": "인천광역시 연수구 용담로 11, 2층 202-1호 (청학동, 시대아파트상가)",
   "phone": "032-812-7235",
   "x": 126.6691277,
   "y": 37.42147906
 },
 {
   "place_name": "희망약국",
   "address_name": "인천광역시 연수구 청명로 5, 1층 (청학동)",
   "phone": "032-822-0994",
   "x": 126.6741858,
   "y": 37.41659086
 },
 {
   "place_name": "봄빛약국",
   "address_name": "인천광역시 연수구 원인재로 180, 101호 (연수동, 연수우성2차아파트상가)",
   "phone": "032-817-9082",
   "x": 126.6855598,
   "y": 37.4130136
 },
 {
   "place_name": "뉴송도약국",
   "address_name": "인천광역시 연수구 해돋이로 102, 1층 103호 (송도동, 명인프라자)",
   "phone": "032-831-0881",
   "x": 126.6510629,
   "y": 37.39140995
 },
 {
   "place_name": "파란샘온누리약국",
   "address_name": "인천광역시 연수구 원인재로 237, 107호 (연수동, 대우1차@상가)",
   "phone": "032-812-8465",
   "x": 126.6865549,
   "y": 37.41797682
 },
 {
   "place_name": "원약국",
   "address_name": "인천광역시 연수구 먼우금로 189 (청학동)",
   "phone": "032-218-1007",
   "x": 126.6758537,
   "y": 37.41462402
 },
 {
   "place_name": "백화점온누리약국",
   "address_name": "인천광역시 연수구 비류대로 208 (옥련동)",
   "phone": "032-831-4787",
   "x": 126.6576815,
   "y": 37.42741566
 },
 {
   "place_name": "늘푸른약국",
   "address_name": "인천광역시 연수구 앵고개로 250, 204호 (동춘동)",
   "phone": "032-812-4815",
   "x": 126.6715062,
   "y": 37.408185
 },
 {
   "place_name": "송도중앙약국",
   "address_name": "인천광역시 연수구 인천타워대로54번길 13, 1층 103호 (송도동, 해승메디피아)",
   "phone": "032-851-3771",
   "x": 126.6463595,
   "y": 37.37917288
 },
 {
   "place_name": "고려약국",
   "address_name": "인천광역시 연수구 컨벤시아대로130번길 58, B동 1층 102호 (송도동, 자이하버뷰)",
   "phone": "032-859-8275",
   "x": 126.6413004,
   "y": 37.39647836
 },
 {
   "place_name": "미래팜약국",
   "address_name": "인천광역시 연수구 독배로 42 (옥련동, 해창빌딩)",
   "phone": "032-833-4350",
   "x": 126.6449034,
   "y": 37.42451621
 },
 {
   "place_name": "아이누리약국",
   "address_name": "인천광역시 연수구 컨벤시아대로 81, B동 3층 301호 (송도동, 드림시티)",
   "phone": "032-851-0069",
   "x": 126.6501651,
   "y": 37.3949425
 },
 {
   "place_name": "뉴코아약국",
   "address_name": "인천광역시 연수구 용담로 11, 205호 (청학동, 시대아파트상가)",
   "phone": "032-814-9444",
   "x": 126.6691277,
   "y": 37.42147906
 },
 {
   "place_name": "양지약국",
   "address_name": "인천광역시 연수구 용담로 115, 112호 (연수동, 파크타워)",
   "phone": "032-822-4119",
   "x": 126.6778153,
   "y": 37.41511423
 },
 {
   "place_name": "천세약국",
   "address_name": "인천광역시 연수구 청능대로 87, 지하1층 (청학동, 롯데마트 연수점 내)",
   "phone": "032-811-0107",
   "x": 126.6751702,
   "y": 37.41512284
 },
 {
   "place_name": "삼호약국",
   "address_name": "인천광역시 연수구 함박뫼로12번길 1 (청학동)",
   "phone": "032-813-0530",
   "x": 126.671541,
   "y": 37.41861617
 },
 {
   "place_name": "연수태평양약국",
   "address_name": "인천광역시 연수구 먼우금로188번길 12 (연수동)",
   "phone": "032-818-7010",
   "x": 126.6765062,
   "y": 37.41341057
 },
 {
   "place_name": "송도프라자약국",
   "address_name": "인천광역시 연수구 한나루로 194-3 (옥련동)",
   "phone": "032-831-8318",
   "x": 126.6572044,
   "y": 37.42643547
 },
 {
   "place_name": "건강온누리약국",
   "address_name": "인천광역시 연수구 용담로118번길 3 (연수동)",
   "phone": "032-815-2660",
   "x": 126.6778936,
   "y": 37.41441739
 },
 {
   "place_name": "연수푸른약국",
   "address_name": "인천광역시 연수구 용담로 115, 305호 (연수동, 파크타워)",
   "phone": "032-818-8825",
   "x": 126.6778153,
   "y": 37.41511423
 },
 {
   "place_name": "효성약국",
   "address_name": "인천광역시 연수구 원인재로 88, 101호 (동춘동, 대우삼환아파트상가)",
   "phone": "032-814-7997",
   "x": 126.6800841,
   "y": 37.40699525
 },
 {
   "place_name": "헬스원약국",
   "address_name": "인천광역시 연수구 센트럴로 160, 140, 141호 (송도동, 파크게이트 )",
   "phone": "032-832-9907",
   "x": 126.644994,
   "y": 37.39200051
 },
 {
   "place_name": "푸른약국",
   "address_name": "인천광역시 연수구 먼우금로 96, 1층 (동춘동)",
   "phone": "032-814-6888",
   "x": 126.6704511,
   "y": 37.40754999
 },
 {
   "place_name": "센타약국",
   "address_name": "인천광역시 연수구 신송로 121, 406호 (송도동, 센터프라자)",
   "phone": "032-851-0672",
   "x": 126.6518857,
   "y": 37.39539201
 },
 {
   "place_name": "건강나라약국",
   "address_name": "인천광역시 연수구 독배로40번길 11, 108호 (옥련동, 효명프라자)",
   "phone": "032-858-9012",
   "x": 126.6456358,
   "y": 37.42452718
 },
 {
   "place_name": "윤약국",
   "address_name": "인천광역시 연수구 학나래로118번길 9, 107호 (선학동, 선학프라자)",
   "phone": "032-814-1345",
   "x": 126.6984687,
   "y": 37.42799005
 },
 {
   "place_name": "메디칼의림약국",
   "address_name": "인천광역시 연수구 신송로 122, 314호 (송도동, 송도프라자)",
   "phone": "032-851-7703",
   "x": 126.6524353,
   "y": 37.39581391
 },
 {
   "place_name": "풍림약국",
   "address_name": "인천광역시 연수구 함박뫼로 250, 101호 (연수동, 풍림1차아파트상가)",
   "phone": "032-813-1398",
   "x": 126.6917391,
   "y": 37.41686766
 },
 {
   "place_name": "정명약국",
   "address_name": "인천광역시 연수구 청학로15번길 4 (청학동)",
   "phone": "032-833-4557",
   "x": 126.6632744,
   "y": 37.42871277
 },
 {
   "place_name": "송도건강온누리약국",
   "address_name": "인천광역시 연수구 컨벤시아대로 69, 4층 408호 (송도동, 밀레니엄빌딩)",
   "phone": "032-858-7792",
   "x": 126.6509557,
   "y": 37.39571542
 },
 {
   "place_name": "보룡약국",
   "address_name": "인천광역시 연수구 독배로40번길 47 (옥련동)",
   "phone": "032-833-1376",
   "x": 126.6475315,
   "y": 37.42460279
 },
 {
   "place_name": "한울약국",
   "address_name": "인천광역시 연수구 새말로 32 (연수동)",
   "phone": "032-818-5578",
   "x": 126.6747454,
   "y": 37.42223841
 },
 {
   "place_name": "신도시약국",
   "address_name": "인천광역시 연수구 해돋이로120번길 16, 106호 (송도동, 송도풍림아이원2단지아파트)",
   "phone": "032-851-7516",
   "x": 126.6523862,
   "y": 37.39483784
 },
 {
   "place_name": "행복한우리약국",
   "address_name": "인천광역시 연수구 앵고개로 256, 101호 (동춘동, 웅지프라자)",
   "phone": "032-818-0301",
   "x": 126.6720179,
   "y": 37.40783029
 },
 {
   "place_name": "무지개약국",
   "address_name": "인천광역시 연수구 새말로 31 (연수동)",
   "phone": "032-818-5225",
   "x": 126.6749965,
   "y": 37.422461
 },
 {
   "place_name": "종로약국",
   "address_name": "인천광역시 연수구 앵고개로 250, 1층 (동춘동)",
   "phone": "032-822-3746",
   "x": 126.6715062,
   "y": 37.408185
 },
 {
   "place_name": "한누리약국",
   "address_name": "인천광역시 연수구 청능대로113번길 11 (연수동)",
   "phone": "032-818-7013",
   "x": 126.6770767,
   "y": 37.41316333
 },
 {
   "place_name": "한솔프라자약국",
   "address_name": "인천광역시 연수구 독배로 41 (옥련동)",
   "phone": "032-833-5166",
   "x": 126.6443535,
   "y": 37.42442552
 },
 {
   "place_name": "참사랑약국",
   "address_name": "인천광역시 연수구 경원대로 184 (동춘동)",
   "phone": "032-811-0500",
   "x": 126.6811199,
   "y": 37.40421841
 },
 {
   "place_name": "연수건강옵티마약국",
   "address_name": "인천광역시 연수구 청능대로 103, 1층 (연수동, BYC빌딩)",
   "phone": "032-821-7770",
   "x": 126.676262,
   "y": 37.41364664
 },
 {
   "place_name": "연수약국",
   "address_name": "인천광역시 연수구 용담로 131, 1층 (연수동)",
   "phone": "032-817-1283",
   "x": 126.6791444,
   "y": 37.41402832
 },
 {
   "place_name": "인화약국",
   "address_name": "인천광역시 연수구 학나래로5번길 52 (선학동)",
   "phone": "032-816-4452",
   "x": 126.6937072,
   "y": 37.42360972
 },
 {
   "place_name": "송도메디칼약국",
   "address_name": "인천광역시 연수구 독배로40번길 43, 3층 (옥련동)",
   "phone": "032-832-9498",
   "x": 126.6472628,
   "y": 37.42462231
 },
 {
   "place_name": "대동약국",
   "address_name": "인천광역시 연수구 선학로68번길 4 (선학동)",
   "phone": "032-812-0056",
   "x": 126.7013186,
   "y": 37.42351158
 },
 {
   "place_name": "대한약국",
   "address_name": "인천광역시 연수구 비류대로 435 (연수동)",
   "phone": "032-816-0378",
   "x": 126.6829941,
   "y": 37.42437216
 },
 {
   "place_name": "연수전문약국",
   "address_name": "인천광역시 연수구 앵고개로 242, 118호 (동춘동, 제일빌딩)",
   "phone": "032-821-4609",
   "x": 126.6708259,
   "y": 37.40865678
 },
 {
   "place_name": "신연수약국",
   "address_name": "인천광역시 연수구 원인재로 312, 107호 (연수동, 대림상가)",
   "phone": "032-818-5120",
   "x": 126.6962326,
   "y": 37.42194246
 },
 {
   "place_name": "성은약국",
   "address_name": "인천광역시 연수구 경원대로483번길 15-3 (선학동)",
   "phone": "032-817-5853",
   "x": 126.6978729,
   "y": 37.4273584
 },
 {
   "place_name": "동의당약국",
   "address_name": "인천광역시 연수구 한진로 23, 1층 (옥련동)",
   "phone": "032-834-8275",
   "x": 126.6478395,
   "y": 37.42466477
 },
 {
   "place_name": "온누리현대약국",
   "address_name": "인천광역시 연수구 독배로40번길 29 (옥련동)",
   "phone": "032-831-4822",
   "x": 126.6465755,
   "y": 37.42450125
 },
 {
   "place_name": "누리약국",
   "address_name": "인천광역시 연수구 원인재로 14, 101호 (동춘동, 무지개상가)",
   "phone": "032-818-0591",
   "x": 126.6700279,
   "y": 37.40128601
 },
 {
   "place_name": "최현수약국",
   "address_name": "인천광역시 연수구 비류대로 429 (연수동)",
   "phone": "032-814-1702",
   "x": 126.6825028,
   "y": 37.42440707
 },
 {
   "place_name": "둥지온누리약국",
   "address_name": "인천광역시 연수구 함박뫼로 26 (청학동)",
   "phone": "032-818-5549",
   "x": 126.6720001,
   "y": 37.41977087
 },
 {
   "place_name": "보건약국",
   "address_name": "인천광역시 연수구 원인재로 222, 401동 115호 (연수동, 시영1차아파트상가)",
   "phone": "032-811-8755",
   "x": 126.6870656,
   "y": 37.41562221
 },
 {
   "place_name": "강봉윤약국",
   "address_name": "인천광역시 연수구 원인재로 315, 110호 (연수동, 주공1단지상가)",
   "phone": "032-811-2023",
   "x": 126.6916732,
   "y": 37.42240378
 },
 {
   "place_name": "화랑약국",
   "address_name": "인천광역시 연수구 원인재로 312, 104호 (연수동, 경남아파트상가)",
   "phone": "032-813-0282",
   "x": 126.6962326,
   "y": 37.42194246
 },
 {
   "place_name": "효성메디칼약국",
   "address_name": "인천광역시 연수구 청능대로 93, 102호 (청학동, 두손빌딩)",
   "phone": "032-811-7997",
   "x": 126.6756664,
   "y": 37.41431959
 },
 {
   "place_name": "자애약국",
   "address_name": "인천광역시 연수구 원인재로 315, 106호 (연수동, 주공임대상가)",
   "phone": "032-812-1019",
   "x": 126.6916732,
   "y": 37.42240378
 },
 {
   "place_name": "동인천약국",
   "address_name": "인천광역시 연수구 선학로 101, 104호 (선학동, 뉴서울상가)",
   "phone": "032-814-4101",
   "x": 126.700629,
   "y": 37.42505274
 },
 {
   "place_name": "대산프라자약국",
   "address_name": "인천광역시 연수구 앵고개로246번길 10, 107,108호 (동춘동)",
   "phone": "032-816-4531",
   "x": 126.6706046,
   "y": 37.40841636
 }
]
